LAT;LNG;ID;NOMBRE;TIPO;ETAPA;ETAPA_OBSE;ESTADO;SUBCATEGOR;CALLE;ALTURA;CALLE2;DIRECCION_;BARRIO;COMUNA
-34.6105107208822;-58.4675159067106;866;PLAZA DR. ROQUE SAENZ PEôA;PARQUES Y PLAZAS;SEGUNDA ETAPA HRL;dic-01;DISPONIBLE;PARQUES Y PLAZAS;ANDRES LAMAS;1641;;LAMAS, ANDRES 1641;VILLA GRAL. MITRE;COMUNA 11
-34.6643332857;-58.449048797335;865;ESTACION LAGUNA;METROBUS;SEGUNDA ETAPA HRL;oct-31;DISPONIBLE;SUR;FERNANDEZ DE LA CRUZ;3550;;FERNANDEZ DE LA CRUZ, F., GRAL. AV. 3550;VILLA SOLDATI;COMUNA 8
-34.6946192068142;-58.4663787299824;863;ESTACION PIEDRA BUENA;METROBUS;SEGUNDA ETAPA HRL;dic-01;DISPONIBLE;SUR;AV. CNEL ROCA;6537;;ROCA, CNEL. AV. 6537;VILLA RIACHUELO;COMUNA 8
-34.5725761921847;-58.4161079790344;862;ROSEDAL;PARQUES Y PLAZAS;SEGUNDA ETAPA HRL;dic-01;DISPONIBLE;PARQUES Y PLAZAS;LIBERTADOR;3752;;DEL LIBERTADOR AV. 3752;PALERMO;COMUNA 14
-34.6222987072532;-58.4127293678925;861;PLAZA MARIANO BOEDO;PARQUES Y PLAZAS;SEGUNDA ETAPA HRL;dic-01;DISPONIBLE;PARQUES Y PLAZAS;CARLOS CALVO;3347;;CALVO, CARLOS 3347;BOEDO;COMUNA 5
-34.6235801520302;-58.4545834987727;856;PATIO DE LOS LECHEROS;ESPACIO PUBLICO;SEGUNDA ETAPA HRL;dic-01;DISPONIBLE;ESPACIO PUBLICO;AV. DONATO ALVAREZ Y BACACAY;0;;ALVAREZ, DONATO, TTE. GRAL. Y BACACAY;FLORES;COMUNA 7
-34.6176728727052;-58.4329227958166;855;PARQUE RIVADAVIA;PARQUES Y PLAZAS;SEGUNDA ETAPA HRL;dic-01;DISPONIBLE;PARQUES Y PLAZAS;RIVADAVIA;4800;;RIVADAVIA AV. 4800;CABALLITO;COMUNA 6
-34.5696510692025;-58.4771047729227;854;PLAZA PASEO DE LA PAZ;PARQUES Y PLAZAS;SEGUNDA ETAPA HRL;dic-01;DISPONIBLE;PARQUES Y PLAZAS;MONROE;4200;;MONROE 4200;VILLA URQUIZA;COMUNA 12
-34.6124967953478;-58.5222113648065;853;PLAZA EL MAESTRO;PARQUES Y PLAZAS;SEGUNDA ETAPA HRL;dic-01;DISPONIBLE;PARQUES Y PLAZAS;AV. FRANCISCO BEIRO;5100;;BEIRO, FRANCISCO AV. 5100;VILLA DEVOTO;COMUNA 11
-34.6357213586516;-58.4821591491689;852;PLAZA CNEL. RAMON L. FALCON;PARQUES Y PLAZAS;SEGUNDA ETAPA HRL;dic-01;DISPONIBLE;PARQUES Y PLAZAS;FALCON, RAMON L.;3900;;FALCON, RAMON L.,CNEL. 3900;FLORESTA;COMUNA 10
-34.5719170340178;-58.4894086324604;851;PLAZA ECHEVERRIA;PARQUES Y PLAZAS;SEGUNDA ETAPA HRL;dic-01;DISPONIBLE;PARQUES Y PLAZAS;CULLEN;5000;;CULLEN 5000;VILLA URQUIZA;COMUNA 12
-34.6202032098856;-58.5278667116366;850;PLAZA VILLA REAL;PARQUES Y PLAZAS;SEGUNDA ETAPA HRL;dic-01;DISPONIBLE;PARQUES Y PLAZAS;IRIGOYEN;2300;;IRIGOYEN 2300;VILLA REAL;COMUNA 10
-34.6108340378158;-58.5180714512038;849;PLAZA TTE. GRAL. PABLO RICCHIERI;PARQUES Y PLAZAS;SEGUNDA ETAPA HRL;dic-01;DISPONIBLE;PARQUES Y PLAZAS;QUEVEDO;3400;;QUEVEDO 3400;VILLA DEVOTO;COMUNA 11
-34.639245132272;-58.5093298300042;848;PLAZA EJERCITO DE LOS ANDES;PARQUES Y PLAZAS;SEGUNDA ETAPA HRL;dic-01;DISPONIBLE;PARQUES Y PLAZAS;RIVADAVIA;10300;;RIVADAVIA AV. 10300;VILLA LURO;COMUNA 10
-34.6053299736333;-58.4931035247884;847;PLAZA ARISTOBULO DEL VALLE;PARQUES Y PLAZAS;SEGUNDA ETAPA HRL;dic-01;DISPONIBLE;PARQUES Y PLAZAS;BAIGORRIA;3200;;BAIGORRIA 3200;VILLA DEL PARQUE;COMUNA 11
-34.5737506020877;-58.4750490254175;846;PLAZA GRAL. J. M. ZAPIOLA;PARQUES Y PLAZAS;SEGUNDA ETAPA HRL;dic-01;DISPONIBLE;PARQUES Y PLAZAS;ECHEVERRIA;4300;;ECHEVERRIA 4300;VILLA URQUIZA;COMUNA 12
-34.689968219805;-58.4612445434234;845;ESTACION SOLDADO DE LA FRONTERA;METROBUS;SEGUNDA ETAPA HRL;dic-01;DISPONIBLE;SUR;AV. CORONEL ROCA;5762;;ROCA, CNEL. AV. 5762;VILLA RIACHUELO;COMUNA 8
-34.6431127883232;-58.423172983957;844;ESTACION AV. LA PLATA;METROBUS;SEGUNDA ETAPA HRL;dic-01;DISPONIBLE;SUR;AV. CRUZ;950;;FERNANDEZ DE LA CRUZ, F., GRAL. AV. 950;NUEVA POMPEYA;COMUNA 4
-34.6369464882832;-58.4152857507823;843;ESTACION BOEDO;METROBUS;SEGUNDA ETAPA HRL;dic-01;DISPONIBLE;SUR;CHICLANA;3615;;CHICLANA AV. 3615;BOEDO;COMUNA 5
-34.569737005645;-58.4533397490419;841;PLAZA JUAN JOSE PASO;PARQUES Y PLAZAS;SEGUNDA ETAPA HRL;dic-01;DISPONIBLE;PARQUES Y PLAZAS;MOLDES;1400;;MOLDES 1400;COLEGIALES;COMUNA 13
-34.5440965802487;-58.4773533442964;840;PLAZA BENJAMIN VICUôA MACKENNA;PARQUES Y PLAZAS;SEGUNDA ETAPA HRL;dic-01;DISPONIBLE;PARQUES Y PLAZAS;CRAMER;4449;;CRAMER 4449;SAAVEDRA;COMUNA 12
-34.5688613693903;-58.4472283795706;839;ESTACION AGUILAR;METROBUS;SEGUNDA ETAPA HRL;dic-01;DISPONIBLE;NORTE;AV. CABILDO;1100;;CABILDO AV. 1100;COLEGIALES;COMUNA 13
-34.5723436926908;-58.440256735853;838;ESTACION MATIENZO;METROBUS;SEGUNDA ETAPA HRL;dic-01;DISPONIBLE;NORTE;AV. CABILDO;300;;CABILDO AV. 300;PALERMO;COMUNA 14
-34.5718130772258;-58.4412022798191;837;ESTACION JORGE NEWBERY;METROBUS;SEGUNDA ETAPA HRL;dic-01;DISPONIBLE;NORTE;AV. CABILDO;390;;CABILDO AV. 390;PALERMO;COMUNA 14
-34.638268043453;-58.5261138791991;836;ESTACION LINIERS;METROBUS;SEGUNDA ETAPA HRL;2015;DISPONIBLE;JUAN B. JUSTO;FRANCISCO DE VIEDMA;6850;;VIEDMA, FRANCISCO DE 6850;LINIERS;COMUNA 9
-34.5713263210616;-58.442239728487;835;ESTACION MAURE;METROBUS;SEGUNDA ETAPA HRL;dic-01;DISPONIBLE;NORTE;AV. CABILDO;450;;CABILDO AV. 450;COLEGIALES;COMUNA 13
-34.6334569239729;-58.5139111082032;834;ESTACION POLIDEPORTIVO VELEZ SARSFIELD;METROBUS;SEGUNDA ETAPA HRL;2015;DISPONIBLE;JUAN B. JUSTO;AV. JUAN B. JUSTO;0;JUAN AGUSTIN GARCIA;JUSTO, JUAN B. AV. Y GARCIA, JUAN AGUSTIN;VERSALLES;COMUNA 10
-34.5709278181187;-58.4430431552329;833;ESTACION GOROSTIAGA;METROBUS;SEGUNDA ETAPA HRL;dic-01;DISPONIBLE;NORTE;AV. CABILDO;550;;CABILDO AV. 550;COLEGIALES;COMUNA 13
-34.5701082825906;-58.4445024574361;832;ESTACION OLLEROS;METROBUS;SEGUNDA ETAPA HRL;dic-01;DISPONIBLE;NORTE;AV. CABILDO;800;;CABILDO AV. 800;COLEGIALES;COMUNA 13
-34.5691810136158;-58.4463783115367;831;ESTACION TEODORO GARCIA;METROBUS;SEGUNDA ETAPA HRL;dic-01;DISPONIBLE;NORTE;AV. CABILDO;0;PALPA;CABILDO AV. Y PALPA;COLEGIALES;COMUNA 13
-34.6343401243604;-58.5067279413042;830;ESTACION CORTINA;METROBUS;SEGUNDA ETAPA HRL;2015;DISPONIBLE;JUAN B. JUSTO;AV. JUAN B. JUSTO;0;CORTINA;JUSTO, JUAN B. AV. Y CORTINA;VILLA LURO;COMUNA 10
-34.632208354416;-58.5010440879522;829;ESTACION AV. LOPE DE VEGA;METROBUS;SEGUNDA ETAPA HRL;2015;DISPONIBLE;JUAN B. JUSTO;AV. JUAN B. JUSTO;0;AV. LOPE DE VEGA;JUSTO, JUAN B. AV. Y LOPE DE VEGA AV.;VILLA LURO;COMUNA 10
-34.6295344574075;-58.4948524225799;828;ESTACION AV. CARRASCO;METROBUS;SEGUNDA ETAPA HRL;2015;DISPONIBLE;JUAN B. JUSTO;AV. JUAN B. JUSTO;0;AV. CARRASCO;JUSTO, JUAN B. AV. Y CARRASCO AV.;VELEZ SARSFIELD;COMUNA 10
-34.6270101756477;-58.4910946618592;827;ESTACION AV. SEGUROLA;METROBUS;SEGUNDA ETAPA HRL;2015;DISPONIBLE;JUAN B. JUSTO;AV. JUAN B. JUSTO;0;AV. SEGUROLA;JUSTO, JUAN B. AV. Y SEGUROLA AV.;VELEZ SARSFIELD;COMUNA 10
-34.6251429839953;-58.4859233245498;826;ESTACION CHIVILCOY;METROBUS;SEGUNDA ETAPA HRL;2015;DISPONIBLE;JUAN B. JUSTO;AV. JUAN B. JUSTO;0;CHIVILCOY;JUSTO, JUAN B. AV. Y CHIVILCOY;FLORESTA;COMUNA 10
-34.6220407598444;-58.4808171285285;825;ESTACION CONCORDIA;METROBUS;SEGUNDA ETAPA HRL;2015;DISPONIBLE;JUAN B. JUSTO;AV. JUAN B. JUSTO;0;CONCORDIA;JUSTO, JUAN B. AV. Y CONCORDIA;VILLA SANTA RITA;COMUNA 11
-34.5689875341135;-58.4467701597751;824;ESTACION PALPA;METROBUS;SEGUNDA ETAPA HRL;dic-01;DISPONIBLE;NORTE;AV. CABILDO;1050;;CABILDO AV. 1050;COLEGIALES;COMUNA 13
-34.618101861621;-58.4760960455675;823;ESTACION AV. NAZCA;METROBUS;SEGUNDA ETAPA HRL;2015;DISPONIBLE;JUAN B. JUSTO;AV. JUAN B. JUSTO;0;AV. NAZCA;JUSTO, JUAN B. AV. Y NAZCA AV.;VILLA SANTA RITA;COMUNA 11
-34.5681157528464;-58.44864520973;822;ESTACION CESPEDES;METROBUS;SEGUNDA ETAPA HRL;dic-01;DISPONIBLE;NORTE;AV. CABILDO;1250;;CABILDO AV. 1250;COLEGIALES;COMUNA 13
-34.6138238785238;-58.4722527834405;821;ESTACION ARTIGAS;METROBUS;SEGUNDA ETAPA HRL;2015;DISPONIBLE;JUAN B. JUSTO;AV. JUAN B. JUSTO;0;ARTIGAS;JUSTO, JUAN B. AV. Y ARTIGAS, JOSE GERVASIO, GRAL.;VILLA GRAL. MITRE;COMUNA 11
-34.6113032037563;-58.467848324634;820;ESTACION BOYACA;METROBUS;SEGUNDA ETAPA HRL;2015;DISPONIBLE;JUAN B. JUSTO;AV. JUAN B. JUSTO;0;BOYACA;JUSTO, JUAN B. AV. Y BOYACA;VILLA GRAL. MITRE;COMUNA 11
-34.6073724573593;-58.4627049858066;819;ESTACION AV. DONATO ALVAREZ;METROBUS;SEGUNDA ETAPA HRL;2015;DISPONIBLE;JUAN B. JUSTO;AV. JUAN B. JUSTO;0;AV. DONATO ALVAREZ;JUSTO, JUAN B. AV. Y ALVAREZ, DONATO, TTE. GRAL.;VILLA GRAL. MITRE;COMUNA 11
-34.5677946028092;-58.4490281715771;818;ESTACION ZABALA;METROBUS;SEGUNDA ETAPA HRL;dic-01;DISPONIBLE;NORTE;AV. CABILDO;0;ZABALA;CABILDO AV. Y ZABALA;COLEGIALES;COMUNA 13
-34.6044913354846;-58.4584744779847;817;ESTACION AV. SAN MARTIN;METROBUS;SEGUNDA ETAPA HRL;2015;DISPONIBLE;JUAN B. JUSTO;AV. JUAN B. JUSTO;0;AV. SAN MARTIN;JUSTO, JUAN B. AV. Y SAN MARTIN AV.;VILLA CRESPO;COMUNA 15
-34.6001200012005;-58.4520531334193;816;ESTACION AV. HONORIO PUEYRREDON;METROBUS;SEGUNDA ETAPA HRL;2015;DISPONIBLE;JUAN B. JUSTO;AV. JUAN B. JUSTO;0;AV. HONORIO PUEYRREDON;JUSTO, JUAN B. AV. Y PUEYRREDON, HONORIO, DR. AV.;VILLA CRESPO;COMUNA 15
-34.5673874954201;-58.4497638164836;815;ESTACION VIRREY LORETO;METROBUS;SEGUNDA ETAPA HRL;dic-01;DISPONIBLE;NORTE;CABILDO;1300;;CABILDO AV. 1300;COLEGIALES;COMUNA 13
-34.5664708446846;-58.4517034037476;814;ESTACION VIRREY ARREDONDO;METROBUS;SEGUNDA ETAPA HRL;dic-01;DISPONIBLE;NORTE;CABILDO;1500;;CABILDO AV. 1500;COLEGIALES;COMUNA 13
-34.5970912407718;-58.4476909156459;813;ESTACION MURILLO;METROBUS;SEGUNDA ETAPA HRL;2015;DISPONIBLE;JUAN B. JUSTO;AV. JUAN B. JUSTO;0;MURILLO;JUSTO, JUAN B. AV. Y MURILLO;VILLA CRESPO;COMUNA 15
-34.5658788154397;-58.4528479723494;812;ESTACION VIRREY DEL PINO;METROBUS;SEGUNDA ETAPA HRL;dic-01;DISPONIBLE;NORTE;CABILDO;1600;;CABILDO AV. 1600;COLEGIALES;COMUNA 13
-34.5644376778444;-58.4547024389101;811;ESTACION LA PAMPA;METROBUS;SEGUNDA ETAPA HRL;dic-01;DISPONIBLE;NORTE;CABILDO;1800;;CABILDO AV. 1800;BELGRANO;COMUNA 13
-34.5922664115843;-58.4407040171449;810;ESTACION AGUIRRE;METROBUS;SEGUNDA ETAPA HRL;2015;DISPONIBLE;JUAN B. JUSTO;AV. JUAN B. JUSTO;2201;;JUSTO, JUAN B. AV. 2201;VILLA CRESPO;COMUNA 15
-34.5634328923239;-58.4553926877815;809;ESTACION SUCRE;METROBUS;SEGUNDA ETAPA HRL;dic-01;DISPONIBLE;NORTE;CABILDO;1900;;CABILDO AV. 1900;BELGRANO;COMUNA 13
-34.585371950978;-58.4347519703331;808;ESTACION HONDURAS;METROBUS;SEGUNDA ETAPA HRL;2015;DISPONIBLE;JUAN B. JUSTO;AV. JUAN B. JUSTO;1501;;JUSTO, JUAN B. AV. 1501;PALERMO;COMUNA 14
-34.5615801749636;-58.4570019754503;807;ESTACION JURAMENTO;METROBUS;SEGUNDA ETAPA HRL;dic-01;DISPONIBLE;NORTE;CABILDO;2100;;CABILDO AV. 2100;BELGRANO;COMUNA 13
-34.5606562302065;-58.4579413085158;806;ESTACION MENDOZA;METROBUS;SEGUNDA ETAPA HRL;dic-01;DISPONIBLE;NORTE;CABILDO;2100;;CABILDO AV. 2100;BELGRANO;COMUNA 13
-34.5818663181463;-58.4300283642842;805;ESTACION GUATEMALA;METROBUS;SEGUNDA ETAPA HRL;2015;DISPONIBLE;JUAN B. JUSTO;AV. JUAN B. JUSTO;1000;;JUSTO, JUAN B. AV. 1000;PALERMO;COMUNA 14
-34.5596770916589;-58.4586264520722;804;ESTACION OLAZABAL;METROBUS;SEGUNDA ETAPA HRL;dic-01;DISPONIBLE;NORTE;CABILDO;2200;;CABILDO AV. 2200;BELGRANO;COMUNA 13
-34.5775886031066;-58.4265278412909;803;ESTACION PACIFICO;METROBUS;SEGUNDA ETAPA HRL;2015;DISPONIBLE;JUAN B. JUSTO;BULLRICH, INT. AV.;600;;BULLRICH, INT. AV. 600;PALERMO;COMUNA 14
-34.5585422586109;-58.4597790628436;802;ESTACION BLANCO ENCALADA;METROBUS;SEGUNDA ETAPA HRL;dic-01;DISPONIBLE;NORTE;CABILDO;2400;;CABILDO AV. 2400;BELGRANO;COMUNA 13
-34.5579693044523;-58.4602896095604;801;ESTACION MONROE;METROBUS;SEGUNDA ETAPA HRL;dic-01;DISPONIBLE;NORTE;CABILDO;2500;;CABILDO AV. 2500;BELGRANO;COMUNA 13
-34.6599169549597;-58.4295512754752;800;ESTACION BERG;METROBUS;SEGUNDA ETAPA HRL;oct-31;DISPONIBLE;SUR;FRANCISCO RABANAL;2331;;RABANAL, FRANCISCO, INTENDENTE AV. 2331;VILLA SOLDATI;COMUNA 8
-34.6615026169915;-58.4330133873029;799;ESTACION VARELA;METROBUS;SEGUNDA ETAPA HRL;oct-31;DISPONIBLE;SUR;FRANCISCO RABANAL;2657;;RABANAL, FRANCISCO, INTENDENTE AV. 2657;VILLA SOLDATI;COMUNA 8
-34.6593116247047;-58.4424395361609;798;ESTACION LA FUENTE;METROBUS;SEGUNDA ETAPA HRL;oct-31;DISPONIBLE;;FERNANDEZ DE LA CRUZ;2974;;FERNANDEZ DE LA CRUZ, F., GRAL. AV. 2974;VILLA SOLDATI;COMUNA 8
-34.6279558325374;-58.3960629914119;797;ESTACION PICHINCHA;METROBUS;SEGUNDA ETAPA HRL;oct-31;DISPONIBLE;SUR;AV. JUAN DE GARAY;2275;;GARAY, JUAN DE AV. 2275;SAN CRISTOBAL;COMUNA 3
-34.6400500504431;-58.4193260932927;796;ESTACION CASEROS;METROBUS;SEGUNDA ETAPA HRL;oct-31;DISPONIBLE;SUR;AV.CHICLANA;3929;;CHICLANA AV. 3929;NUEVA POMPEYA;COMUNA 4
-34.6475291545269;-58.4279327433962;795;ESTACION DEL BARCO CENTENERA;METROBUS;SEGUNDA ETAPA HRL;oct-31;DISPONIBLE;SUR;FERNANDEZ DE LA CRUZ;1469;;FERNANDEZ DE LA CRUZ, F., GRAL. AV. 1469;NUEVA POMPEYA;COMUNA 4
-34.6556557629657;-58.4377996811463;794;ESTACION VARELA;METROBUS;SEGUNDA ETAPA HRL;oct-31;DISPONIBLE;SUR;FERNANDEZ DE LA CRUZ;2502;;FERNANDEZ DE LA CRUZ, F., GRAL. AV. 2502;VILLA SOLDATI;COMUNA 8
-34.6338774093126;-58.4066118718233;793;ESTACION LA RIOJA;METROBUS;SEGUNDA ETAPA HRL;oct-31;DISPONIBLE;SUR;BRASIL;3019;;BRASIL 3019;PARQUE PATRICIOS;COMUNA 4
-34.6302025072799;-58.3954031198439;789;ESTACION GARRAHAN;METROBUS;SEGUNDA ETAPA HRL;oct-16;DISPONIBLE;SUR;BRASIL;0;PICHINCHA;BRASIL Y PICHINCHA AV.;PARQUE PATRICIOS;COMUNA 4
-34.6311787402839;-58.4072377870742;787;ESTACION LA RIOJA;METROBUS;SEGUNDA ETAPA HRL;oct-16;DISPONIBLE;SUR;CHICLANA;3032;LA RIOJA;CHICLANA AV. 3032;PARQUE PATRICIOS;COMUNA 4
-34.6080500788813;-58.4101251797948;780;PASEO COMERCIAL ONCE;ESPACIO PUBLICO;SEGUNDA ETAPA HRL;sep-16;DISPONIBLE;INCLUSION;PERON, JUAN DOMINGO, TTE. GENERAL;3002;;PERON, JUAN DOMINGO, TTE. GENERAL 3002;BALVANERA;COMUNA 3
-34.5490006329618;-58.471552863463;779;PLAZA ILDEFONSO F. CAVAGNA MARTINEZ;PARQUES Y PLAZAS;SEGUNDA ETAPA HRL;sep-16;DISPONIBLE;PARQUES Y PLAZAS;GARCIA DEL RIO, AV;0;AMENABAR;GARCIA DEL RIO AV. Y AMENABAR;SAAVEDRA;COMUNA 12
-34.5387596003058;-58.4756270415858;778;ESTACION GRAL PAZ;METROBUS;SEGUNDA ETAPA HRL;sep-16;DISPONIBLE;NORTE;CABILDO;0;GRAL PAZ;CABILDO AV. Y PAZ, GRAL. AV.;SAAVEDRA;COMUNA 12
-34.5475997991353;-58.4693288167508;777;ESTACION MANZANARES;METROBUS;SEGUNDA ETAPA HRL;sep-16;DISPONIBLE;NORTE;CABILDO;0;MANZANARES;CABILDO AV. Y MANZANARES;SAAVEDRA;COMUNA 12
-34.5411475184171;-58.4741272894864;776;ESTACION PICO;METROBUS;SEGUNDA ETAPA HRL;sep-16;DISPONIBLE;NORTE;CABILDO;0;PICO;CABILDO AV. Y PICO;NUôEZ;COMUNA 13
-34.5426700972018;-58.4728656590481;775;ESTACION ARIAS;METROBUS;SEGUNDA ETAPA HRL;oct-16;DISPONIBLE;NORTE;CABILDO;0;ARIAS;CABILDO AV. Y ARIAS;NUôEZ;COMUNA 13
-34.543416135974;-58.4723041219133;774;ESTACION RAMALLO;METROBUS;SEGUNDA ETAPA HRL;sep-16;DISPONIBLE;NORTE;CABILDO;0;RAMALLO;CABILDO AV. Y RAMALLO;NUôEZ;COMUNA 13
-34.5441998258754;-58.4718760845726;773;ESTACION CORREA;METROBUS;SEGUNDA ETAPA HRL;oct-16;DISPONIBLE;NORTE;CABILDO;0;CORREA;CABILDO AV. Y CORREA;SAAVEDRA;COMUNA 12
-34.544937111459;-58.4713366225486;772;ESTACION RUIZ HUIDOBRO;METROBUS;SEGUNDA ETAPA HRL;sep-16;DISPONIBLE;NORTE;CABILDO;0;RUIZ HUIDOBRO;CABILDO AV. Y RUIZ HUIDOBRO;SAAVEDRA;COMUNA 12
-34.5456107079002;-58.4706988395169;771;ESTACION BESARES;METROBUS;SEGUNDA ETAPA HRL;sep-16;DISPONIBLE;NORTE;CABILDO;0;BESARES;CABILDO AV. Y BESARES;SAAVEDRA;COMUNA 12
-34.5463409597302;-58.4701574678602;770;ESTACION VILELA;METROBUS;SEGUNDA ETAPA HRL;oct-16;DISPONIBLE;NORTE;CABILDO;0;VILELA;CABILDO AV. Y VILELA;SAAVEDRA;COMUNA 12
-34.5470417642929;-58.4697347166123;769;ESTACION PAROISSIEN;METROBUS;SEGUNDA ETAPA HRL;sep-16;DISPONIBLE;NORTE;CABILDO;0;PAROISSIEN;CABILDO AV. Y PAROISSIEN;SAAVEDRA;COMUNA 12
-34.548655123925;-58.4683330780308;768;ESTACION CRISOLOGO LARRALDE;METROBUS;SEGUNDA ETAPA HRL;sep-16;DISPONIBLE;NORTE;CABILDO;0;LARRALDE;CABILDO AV. Y LARRALDE, CRISOLOGO AV.;NUôEZ;COMUNA 13
-34.5493114026622;-58.4678167027947;767;ESTACION NUôEZ;METROBUS;SEGUNDA ETAPA HRL;sep-16;DISPONIBLE;NORTE;CABILDO;0;LARRALDE;CABILDO AV. Y LARRALDE, CRISOLOGO AV.;NUôEZ;COMUNA 13
-34.5505184193538;-58.4670162945276;766;ESTACION JUANA AZURDUY;METROBUS;SEGUNDA ETAPA HRL;oct-16;DISPONIBLE;NORTE;CABILDO;0;AZURDUY JUANA;CABILDO AV. Y AZURDUY JUANA;NUôEZ;COMUNA 13
-34.5512938726482;-58.4664176019391;765;ESTACION MANUELA PEDRAZA;METROBUS;SEGUNDA ETAPA HRL;sep-16;DISPONIBLE;NORTE;CABILDO;3400;;CABILDO AV. 3400;NUôEZ;COMUNA 13
-34.5516181217735;-58.4659565730017;764;ESTACION CAMPOS SALLES;METROBUS;SEGUNDA ETAPA HRL;sep-16;DISPONIBLE;NORTE;CABILDO;3300;;CABILDO AV. 3300;NUôEZ;COMUNA 13
-34.5530940057382;-58.4647658256463;763;ESTACION IBERA;METROBUS;SEGUNDA ETAPA HRL;sep-16;DISPONIBLE;NORTE;CABILDO;0;IBERA;CABILDO AV. Y IBERA;NUôEZ;COMUNA 13
-34.554011184228;-58.4640892864815;762;ESTACION QUESADA;METROBUS;SEGUNDA ETAPA HRL;sep-16;DISPONIBLE;NORTE;CABILDO;0;QUESADA;CABILDO AV. Y QUESADA;NUôEZ;COMUNA 13
-34.5550133219248;-58.463088723247;761;ESTACION CONGRESO;METROBUS;SEGUNDA ETAPA HRL;sep-16;DISPONIBLE;NORTE;CABILDO;0;CONGRESO;CABILDO AV. Y CONGRESO;BELGRANO;COMUNA 13
-34.5558893609705;-58.4620814462484;760;ESTACION UGARTE;METROBUS;SEGUNDA ETAPA HRL;sep-16;DISPONIBLE;NORTE;CABILDO;0;UGARTE;CABILDO AV. Y UGARTE, MANUEL;BELGRANO;COMUNA 13
-34.55684835419;-58.4611585387294;759;ESTACION ROOSEVELT;METROBUS;SEGUNDA ETAPA HRL;sep-16;DISPONIBLE;NORTE;CABILDO;0;ROOSEVELT;CABILDO AV. Y ROOSEVELT FRANKLIN D.;BELGRANO;COMUNA 13
-34.5418875747147;-58.4735911015055;758;ESTACION DEHEZA;METROBUS;SEGUNDA ETAPA HRL;sep-16;DISPONIBLE;NORTE;CABILDO;0;ARIAS;CABILDO AV. Y ARIAS;NUôEZ;COMUNA 13
-34.6028088180228;-58.4651092906593;752;ESTACION DONATO ALVAREZ;METROBUS;PRIMERA ETAPA HRL;ago-16;DISPONIBLE;SAN MARTIN;SAN MARTIN AV.;0;ALVAREZ DONATO;SAN MARTIN AV. Y ALVAREZ, DONATO, TTE. GRAL. AV.;PATERNAL;COMUNA 15
-34.5969100989045;-58.4951273177937;751;ESTACION ROFFO;METROBUS;PRIMERA ETAPA HRL;sep-16;DISPONIBLE;SAN MARTIN;SAN MARTIN AV.;5400;;SAN MARTIN AV. 5400;VILLA DEL PARQUE;COMUNA 11
-34.5846232300563;-58.3794688862688;750;BARRIO 31-GALPON;ESPACIO PUBLICO;PRIMERA ETAPA HRL;jul-16;DISPONIBLE;INCLUSION;WALSH;0;PERETTE;WALSH, RODOLFO Y PERETTE, CARLOS H.;RETIRO;COMUNA 1
-34.5894166206452;-58.4162346420822;749;PLAZA GUEMES;PARQUES Y PLAZAS;PRIMERA ETAPA HRL;sep-16;DISPONIBLE;PARQUES Y PLAZAS;MEDRANO;1901;;MEDRANO 1901;PALERMO;COMUNA 14
-34.6042711375395;-58.4592985709344;748;ESTACION PAPPO NAPOLITANO;METROBUS;PRIMERA ETAPA HRL;ago-16;DISPONIBLE;SAN MARTIN;SAN MARTIN AV.;2250;;SAN MARTIN AV. 2250;VILLA GRAL. MITRE;COMUNA 11
-34.597468679394;-58.4870182772787;747;ESTACION 2 DE ABRIL;METROBUS;PRIMERA ETAPA HRL;ago-16;DISPONIBLE;SAN MARTIN;SAN MARTIN AV.;4850;;SAN MARTIN AV. 4850;VILLA DEL PARQUE;COMUNA 11
-34.6298778880502;-58.4827716967653;742;PLAZA VELEZ SARSFIELD;PARQUES Y PLAZAS;PRIMERA ETAPA HRL;ago-16;DISPONIBLE;PARQUES Y PLAZAS;CHIVILCOY;395;;CHIVILCOY 395;FLORESTA;COMUNA 10
-34.583091167051;-58.3800480780464;741;BARRIO 31-CANCHA GUEMES;ESPACIO PUBLICO;PRIMERA ETAPA HRL;jul-16;DISPONIBLE;INCLUSION;WALSH;0;PERETTE;WALSH, RODOLFO Y PERETTE, CARLOS H.;RETIRO;COMUNA 1
-34.5828560559698;-58.3789692804144;740;BARRIO 31-PLAZA DE MARIA;PARQUES Y PLAZAS;PRIMERA ETAPA HRL;jul-16;DISPONIBLE;INCLUSION;WALSH;0;PERETTE;WALSH, RODOLFO Y PERETTE, CARLOS H.;RETIRO;COMUNA 1
-34.5853245139111;-58.3768086800292;739;BARRIO 31-FERIA;ESPACIO PUBLICO;PRIMERA ETAPA HRL;jul-16;DISPONIBLE;INCLUSION;WALSH;0;PERETTE;WALSH, RODOLFO Y PERETTE, CARLOS H.;RETIRO;COMUNA 1
-34.5916252574472;-58.5112021395219;738;ESTACION MOSCONI;METROBUS;PRIMERA ETAPA HRL;ago-16;DISPONIBLE;SAN MARTIN;SAN MARTIN AV.;6901;;SAN MARTIN AV. 6901;VILLA DEVOTO;COMUNA 11
-34.6288920257169;-58.4935197583721;737;PLAZA DE LA BANDERA;PARQUES Y PLAZAS;PRIMERA ETAPA HRL;ago-16;DISPONIBLE;PARQUES Y PLAZAS;JUSTO,JUAN B. AV;7318;;JUSTO, JUAN B. AV. 7318;VELEZ SARSFIELD;COMUNA 10
-34.6402752087943;-58.4060232550507;736;MANZANA CIVICA;PARQUES Y PLAZAS;PRIMERA ETAPA HRL;ago-16;DISPONIBLE;PARQUES Y PLAZAS;USPALLATA;3069;;USPALLATA 3069;PARQUE PATRICIOS;COMUNA 4
-34.5904194950036;-58.5151941830855;735;ESTACION LADINES;METROBUS;PRIMERA ETAPA HRL;ago-16;DISPONIBLE;SAN MARTIN;SAN MARTIN AV.;7150;;SAN MARTIN AV. 7150;VILLA DEVOTO;COMUNA 11
-34.5929460676286;-58.5075942417535;734;ESTACION CUBAS;METROBUS;PRIMERA ETAPA HRL;ago-16;DISPONIBLE;SAN MARTIN;SAN MARTIN AV.;6500;;SAN MARTIN AV. 6500;VILLA DEVOTO;COMUNA 11
-34.5959870963169;-58.499404116066;733;ESTACION SOLANO LOPEZ;METROBUS;PRIMERA ETAPA HRL;ago-16;DISPONIBLE;SAN MARTIN;SAN MARTIN AV.;5800;;SAN MARTIN AV. 5800;VILLA DEVOTO;COMUNA 11
-34.5971403818529;-58.4916851582509;732;ESTACION COMUNICACIONES;METROBUS;PRIMERA ETAPA HRL;ago-16;DISPONIBLE;SAN MARTIN;SAN MARTIN AV.;5100;;SAN MARTIN AV. 5100;VILLA DEL PARQUE;COMUNA 11
-34.5977308550165;-58.483611345177;731;ESTACION AGRONOMIA;METROBUS;PRIMERA ETAPA HRL;ago-16;DISPONIBLE;SAN MARTIN;SAN MARTIN AV.;4500;;SAN MARTIN AV. 4500;VILLA DEL PARQUE;COMUNA 11
-34.5987465091667;-58.4810042743324;730;ESTACION EMPEDRADO;METROBUS;PRIMERA ETAPA HRL;ago-16;DISPONIBLE;SAN MARTIN;SAN MARTIN AV.;4150;;SAN MARTIN AV. 4150;VILLA DEL PARQUE;COMUNA 11
-34.6015692461088;-58.4701064124591;729;ESTACION ALVAREZ JONTE;METROBUS;PRIMERA ETAPA HRL;sep-16;DISPONIBLE;SAN MARTIN;SAN MARTIN AV.;3297;;SAN MARTIN AV. 3297;PATERNAL;COMUNA 15
-34.5807630536297;-58.4455214836623;728;PLAZA MAFALDA;PARQUES Y PLAZAS;PRIMERA ETAPA HRL;ago-16;DISPONIBLE;PARQUES Y PLAZAS;CONDE;0;SANTOS DUMONT;CONDE Y DUMONT, SANTOS;COLEGIALES;COMUNA 13
-34.5825078593767;-58.4187012958104;718;JARDIN BOTANICO (CASONA);PARQUES Y PLAZAS;GESTION PREVIA HRL;;DISPONIBLE;PARQUES Y PLAZAS;SANTA FE AV.;3917;;SANTA FE AV. 3917;PALERMO;COMUNA 14
-34.5827785805383;-58.4171168389254;717;JARDIN BOTANICO CARLOS THAYS;PARQUES Y PLAZAS;GESTION PREVIA HRL;3RA. ETAPA / AGOSTO 2012;DISPONIBLE;PARQUES Y PLAZAS;SANTA FE AV.;3951;;SANTA FE AV. 3951;PALERMO;COMUNA 14
-34.5999725509561;-58.511058988209;716;HTAL. ZUBIZARRETA;HOSPITALES Y CENTROS DE SALUD;GESTION PREVIA HRL;;DISPONIBLE;HOSPITAL;NUEVA YORK;3952;;NUEVA YORK 3952;VILLA DEVOTO;COMUNA 11
-34.6253368904816;-58.5076139395859;715;HTAL. VELEZ SARFIELD;HOSPITALES Y CENTROS DE SALUD;GESTION PREVIA HRL;;DISPONIBLE;HOSPITAL;CALDERON DE LA BARCA, PEDRO;1550;;CALDERON DE LA BARCA, PEDRO 1550;MONTE CASTRO;COMUNA 10
-34.6150402789385;-58.4483015756095;714;MUSEO DE ESCULTURAS LUIS PERLOTTI;MUSEOS;GESTION PREVIA HRL;may-16;DISPONIBLE;MUSEOS;PUJOL;642;;PUJOL 642;CABALLITO;COMUNA 6
-34.6280790547908;-58.3714309532972;713;EDIFICIO FINOCHIETTO;ESPACIO PUBLICO;GESTION PREVIA HRL;may-16;DISPONIBLE;EDIFICIOS DEL GCABA;FINOCHIETTO;435;;FINOCHIETTO ENRIQUE DR. 435;BARRACAS;COMUNA 4
-34.6122194775092;-58.3858303606371;711;AGENCIA DE PROTECCION AMBIENTAL;ESPACIO PUBLICO;GESTION PREVIA HRL;42461;DISPONIBLE;EDIFICIOS DEL GCABA;MORENO;1379;;MORENO 1379;MONSERRAT;COMUNA 1
-34.6042796422951;-58.4330297198065;710;SEôALAMIENTO LUMINOSO;ESPACIO PUBLICO;GESTION PREVIA HRL;mar-16;DISPONIBLE;OTROS ESTABLECIMIENTOS;MACHADO;94;;MACHADO, ANTONIO 94;CABALLITO;COMUNA 6
-34.6503866080475;-58.4029185524954;708;SEDE NIDO - BARRIO ZAVALETA;ESPACIO PUBLICO;GESTION PREVIA HRL;dic-15;DISPONIBLE;INCLUSION;IGUAZU;0;IRIARTE;IGUAZU Y IRIARTE, GRAL. AV.;NUEVA POMPEYA;COMUNA 4
-34.6106759684483;-58.3698240113815;707;MINISTERIO DE EDUCACION;ESPACIO PUBLICO;GESTION PREVIA HRL;dic-15;DISPONIBLE;EDIFICIOS DEL GCABA;PASEO COLON;255;;PASEO COLON AV. 255;MONSERRAT;COMUNA 1
-34.6766188757883;-58.4538434338092;706;CIM VILLA LUGANO;ESPACIO PUBLICO;GESTION PREVIA HRL;nov-15;DISPONIBLE;INCLUSION;ESCALADA AV.;4502;;ESCALADA AV. 4502;VILLA SOLDATI;COMUNA 8
-34.6120925777804;-58.4116817268224;705;CIM MARGARITA MALHARRO;ESPACIO PUBLICO;GESTION PREVIA HRL;nov-15;DISPONIBLE;INCLUSION;24 DE NOVIEMBRE;113;;24 DE NOVIEMBRE 113;BALVANERA;COMUNA 3
-34.6012555765468;-58.4191822994397;704;CIM ELVIRA RAWSON;ESPACIO PUBLICO;GESTION PREVIA HRL;nov-15;DISPONIBLE;INCLUSION;SALGUERO;765;;SALGUERO, JERONIMO 765;ALMAGRO;COMUNA 5
-34.5872706916233;-58.4089384900678;703;SERVICIO SOCIAL ZONAL 14;ESPACIO PUBLICO;GESTION PREVIA HRL;nov-15;DISPONIBLE;SERVICIO SOCIAL ZONAL;CORONEL DIAZ;2110;;DIAZ, CNEL. AV. 2110;PALERMO;COMUNA 14
-34.5537815833309;-58.4640249624256;702;SERVICIO SOCIAL ZONAL 13;ESPACIO PUBLICO;GESTION PREVIA HRL;nov-15;DISPONIBLE;SERVICIO SOCIAL ZONAL;CABILDO;3067;;CABILDO AV. 3067;NUôEZ;COMUNA 13
-34.6000166542063;-58.3915509579091;701;SERVICIO SOCIAL ZONAL 2;ESPACIO PUBLICO;GESTION PREVIA HRL;nov-15;DISPONIBLE;SERVICIO SOCIAL ZONAL;RODRIGUEZ PEôA;780;;RODRIGUEZ PEôA 780;SAN NICOLAS;COMUNA 1
-34.6276971096281;-58.4218481731296;700;SERVICIO SOCIAL ZONAL 5;ESPACIO PUBLICO;GESTION PREVIA HRL;oct-15;DISPONIBLE;SERVICIO SOCIAL ZONAL;COCHABAMBA;4048;;COCHABAMBA 4048;BOEDO;COMUNA 5
-34.623219703625;-58.3986181999926;699;SERVICIO SOCIAL ZONAL 3;ESPACIO PUBLICO;GESTION PREVIA HRL;oct-15;DISPONIBLE;SERVICIO SOCIAL ZONAL;AV SAN JUAN;2353;;SAN JUAN AV. 2353;SAN CRISTOBAL;COMUNA 3
-34.6016829598231;-58.4623346735102;698;SERVICIO SOCIAL ZONAL 15;ESPACIO PUBLICO;GESTION PREVIA HRL;oct-15;DISPONIBLE;SERVICIO SOCIAL ZONAL;SEGUI;2125;;SEGUI, F. J., ALTE. 2125;PATERNAL;COMUNA 15
-34.6016829598231;-58.4623346735102;697;SERVICIO SOCIAL ZONAL 10;ESPACIO PUBLICO;GESTION PREVIA HRL;oct-15;DISPONIBLE;SERVICIO SOCIAL ZONAL;SEGUI;2125;;SEGUI, F. J., ALTE. 2125;PATERNAL;COMUNA 15
-34.6285242258581;-58.4272873629078;678;ISC - ASI DESARROLLO;ESPACIO PUBLICO;GESTION PREVIA HRL;sep-15;DISPONIBLE;EDIFICIOS DEL GCABA;ZUVIRIA;64;;ZUVIRIA 64;PARQUE CHACABUCO;COMUNA 7
-34.5841200414108;-58.3749264148556;677;PORTAL INCLUSIVO VILLA 31;ESPACIO PUBLICO;GESTION PREVIA HRL;sep-15;DISPONIBLE;INCLUSION;GENDARMERIA;0;WALSH;GENDARMERIA NACIONAL AV. Y WALSH, RODOLFO;RETIRO;COMUNA 1
-34.6022568125962;-58.3680451216643;674;TERMINAL COMBIS PUERTO MADERO;ESPACIO PUBLICO;GESTION PREVIA HRL;sep-15;DISPONIBLE;OTROS ESTABLECIMIENTOS;MADERO AV.;401;;MADERO, EDUARDO AV. 401;PUERTO MADERO;COMUNA 1
-34.5805640913086;-58.464141845839;664;SERVICIO SOCIAL ZONAL 12;ESPACIO PUBLICO;GESTION PREVIA HRL;sep-15;DISPONIBLE;SERVICIO SOCIAL ZONAL;CHARLONE;1563;;CHARLONE 1563;VILLA ORTUZAR;COMUNA 15
-34.6132846158482;-58.524193640854;663;SERVICIO SOCIAL ZONAL 11;ESPACIO PUBLICO;GESTION PREVIA HRL;sep-15;DISPONIBLE;SERVICIO SOCIAL ZONAL;BEIRO;5229;;BEIRO, FRANCISCO AV. 5229;VILLA DEVOTO;COMUNA 11
-34.6607972748633;-58.4332393496743;662;CMB Nº 39;HOSPITALES Y CENTROS DE SALUD;GESTION PREVIA HRL;sep-15;DISPONIBLE;CMB;AV. VARELA;3395;;VARELA AV. 3395;VILLA SOLDATI;COMUNA 8
-34.6518262956173;-58.4777544804623;661;CMB Nº 38;HOSPITALES Y CENTROS DE SALUD;GESTION PREVIA HRL;sep-15;DISPONIBLE;CMB;MORETO;1581;;MORETO 1581;PARQUE AVELLANEDA;COMUNA 9
-34.6461645357414;-58.3718220054287;660;CMB Nº 37;HOSPITALES Y CENTROS DE SALUD;GESTION PREVIA HRL;sep-15;DISPONIBLE;CMB;ISABEL LA CATOLICA;1492;;ISABEL LA CATOLICA 1492;BARRACAS;COMUNA 4
-34.5852024732771;-58.4860670312675;659;CMB Nº 36;HOSPITALES Y CENTROS DE SALUD;GESTION PREVIA HRL;sep-15;DISPONIBLE;CMB;BURELA;1604;;BURELA 1604;PARQUE CHAS;COMUNA 15
-34.5912460693846;-58.498832091436;658;CMB Nº 35;HOSPITALES Y CENTROS DE SALUD;GESTION PREVIA HRL;sep-15;DISPONIBLE;CMB;SALVADOR MARIA DEL CARRIL;2956;;CARRIL, SALVADOR MARIA DEL AV. 2956;AGRONOMIA;COMUNA 15
-34.5894254693965;-58.4411670575732;657;CMB Nº 34;HOSPITALES Y CENTROS DE SALUD;GESTION PREVIA HRL;sep-15;DISPONIBLE;CMB;HUMBOLDT;1130;;HUMBOLDT 1130;CHACARITA;COMUNA 15
-34.5447607999572;-58.476601587884;656;CMB Nº 33;HOSPITALES Y CENTROS DE SALUD;GESTION PREVIA HRL;sep-15;DISPONIBLE;CMB;CRAMER;4354;;CRAMER 4354;SAAVEDRA;COMUNA 12
-34.6280012985796;-58.5040161329697;655;CMB Nº 32;HOSPITALES Y CENTROS DE SALUD;GESTION PREVIA HRL;sep-15;DISPONIBLE;CMB;CALDERON DE LA BARCA;1198;;CALDERON DE LA BARCA, PEDRO 1198;VELEZ SARSFIELD;COMUNA 10
-34.6394122276215;-58.4460586762086;654;CMB Nº 31;HOSPITALES Y CENTROS DE SALUD;GESTION PREVIA HRL;sep-15;DISPONIBLE;CMB;AVELINO DIAZ;1971;;DIAZ, AVELINO 1971;PARQUE CHACABUCO;COMUNA 7
-34.6335933458017;-58.3704862935966;653;CMB Nº 30;HOSPITALES Y CENTROS DE SALUD;GESTION PREVIA HRL;sep-15;DISPONIBLE;CMB;ARZOBISPO ESPINOSA;1211;;ARZOBISPO ESPINOSA 1211;BARRACAS;COMUNA 4
-34.6124424014035;-58.4033114965249;652;CMB Nº 29;HOSPITALES Y CENTROS DE SALUD;GESTION PREVIA HRL;sep-15;DISPONIBLE;CMB;SAAVEDRA;205;;SAAVEDRA 205;BALVANERA;COMUNA 3
-34.6658770993537;-58.4849701614135;651;CMB Nº 28;HOSPITALES Y CENTROS DE SALUD;GESTION PREVIA HRL;sep-15;DISPONIBLE;CMB;ECHEANDIA;5567;;ECHEANDIA 5567;VILLA LUGANO;COMUNA 8
-34.6051603143746;-58.4448889910928;648;CMB Nº 27;HOSPITALES Y CENTROS DE SALUD;GESTION PREVIA HRL;ago-15;DISPONIBLE;CMB;ANTEZANA;340;;ANTEZANA 340;VILLA CRESPO;COMUNA 15
-34.5517267713519;-58.4631591247924;647;CMB Nº 26;HOSPITALES Y CENTROS DE SALUD;GESTION PREVIA HRL;ago-15;DISPONIBLE;CMB;GUAYRA;2193;;GUAYRA 2193;NUôEZ;COMUNA 13
-34.6328125406703;-58.4040087005944;645;CMB Nº 24;HOSPITALES Y CENTROS DE SALUD;GESTION PREVIA HRL;ago-15;DISPONIBLE;CMB;BRASIL;2867;;BRASIL 2867;PARQUE PATRICIOS;COMUNA 4
-34.6297947919835;-58.429706136227;644;CMB Nº 23;HOSPITALES Y CENTROS DE SALUD;GESTION PREVIA HRL;ago-15;DISPONIBLE;CMB;TEJEDOR;251;;TEJEDOR 251;PARQUE CHACABUCO;COMUNA 7
-34.6030770684934;-58.3794235704549;643;"CONSERVATORIO S. M. ""MANUEL DE FALLA""";ESPACIO PUBLICO;GESTION PREVIA HRL;ago-15;DISPONIBLE;OTROS ESTABLECIMIENTOS;SUIPACHA;443;;SUIPACHA 443;SAN NICOLAS;COMUNA 1
-34.603041018269;-58.3794345083749;642;"CONSERVATORIO S. M. ""MANUEL DE FALLA""";ESPACIO PUBLICO;GESTION PREVIA HRL;ago-15;DISPONIBLE;OTROS ESTABLECIMIENTOS;SUIPACHA;443;;SUIPACHA 443;SAN NICOLAS;COMUNA 1
-34.6465934118243;-58.5136080983807;641;POLIDEPORTIVO SANTOJANNI;ESPACIO PUBLICO;GESTION PREVIA HRL;ago-15;DISPONIBLE;OTROS ESTABLECIMIENTOS;PATRON;6222;;PATRON 6222;LINIERS;COMUNA 9
-34.5798824150905;-58.4455456567543;640;POLIDEPORTIVO COLEGIALES;ESPACIO PUBLICO;GESTION PREVIA HRL;ago-15;DISPONIBLE;OTROS ESTABLECIMIENTOS;CONDE;235;;CONDE 235;COLEGIALES;COMUNA 13
-34.5849896360167;-58.4137084531004;637;CMB Nº 22;HOSPITALES Y CENTROS DE SALUD;GESTION PREVIA HRL;ago-15;DISPONIBLE;CMB;ARAOZ;2637;;ARAOZ 2637;PALERMO;COMUNA 14
-34.64935435663;-58.4943617241047;636;CMB Nº 20;HOSPITALES Y CENTROS DE SALUD;GESTION PREVIA HRL;ago-15;DISPONIBLE;CMB;ARAUJO;1246;;ARAUJO 1246;MATADEROS;COMUNA 9
-34.6137422033411;-58.5266752081579;635;CMB Nº 19;HOSPITALES Y CENTROS DE SALUD;GESTION PREVIA HRL;ago-15;DISPONIBLE;CMB;COLIGUE;2977;;COLIGUE 2977;VILLA REAL;COMUNA 10
-34.6505420699384;-58.4318016908883;634;SECHI MADRE DEL PUEBLO;ESPACIO PUBLICO;GESTION PREVIA HRL;ago-15;DISPONIBLE;INCLUSION;AV. PERITO MORENO;0;AV. CRUZ;MORENO, PERITO AV. Y FERNANDEZ DE LA CRUZ, F., GRAL. AV.;FLORES;COMUNA 7
-34.6089352938547;-58.4060370153051;633;ESTACION ONCE - 30 DE DICIEMBRE - LINEA H;SUBTE;GESTION PREVIA HRL;jun-15;DISPONIBLE;LINEA H;MITRE;0;PUEYRREDON;MITRE, BARTOLOME Y PUEYRREDON AV.;BALVANERA;COMUNA 3
-34.6230849406998;-58.4023148748249;629;ESTACION HUMBERTO 1º - LINEA H;SUBTE;GESTION PREVIA HRL;jul-15;DISPONIBLE;LINEA H;JUJUY;0;HUMBERTO PRIMO;JUJUY AV. Y HUMBERTO 1;SAN CRISTOBAL;COMUNA 3
-34.6412716991422;-58.4123823455799;625;ESTACION HOSPITALES - LINEA H;SUBTE;GESTION PREVIA HRL;jul-15;DISPONIBLE;LINEA H;PUNA;0;ALMAFUERTE;PUNA Y ALMAFUERTE AV.;PARQUE PATRICIOS;COMUNA 4
-34.6152386603117;-58.404742418805;622;ESTACION VENEZUELA - LINEA H;SUBTE;GESTION PREVIA HRL;jul-15;DISPONIBLE;LINEA H;BELGRANO;0;JUJUY;BELGRANO AV. Y JUJUY AV.;BALVANERA;COMUNA 3
-34.6293755371748;-58.4009708300861;617;ESTACION INCLAN - LINEA H;SUBTE;GESTION PREVIA HRL;jul-15;DISPONIBLE;LINEA H;INCLAN;0;JUJUY;INCLAN Y JUJUY AV.;PARQUE PATRICIOS;COMUNA 4
-34.6357440290381;-58.398947219082;611;ESTACION CASEROS - LINEA H;SUBTE;GESTION PREVIA HRL;jul-15;DISPONIBLE;LINEA H;CASEROS;0;JUJUY;CASEROS AV. Y JUJUY AV.;PARQUE PATRICIOS;COMUNA 4
-34.5556425339622;-58.4623805023815;606;ESTACION CONGRESO DE TUCUMAN - LINEA D;SUBTE;GESTION PREVIA HRL;jul-15;DISPONIBLE;LINEA D;CONGRESO;0;CABILDO;CONGRESO Y CABILDO AV.;BELGRANO;COMUNA 13
-34.5620382144594;-58.4566895713406;601;ESTACION JURAMENTO - LINEA D;SUBTE;GESTION PREVIA HRL;jul-15;DISPONIBLE;LINEA D;JURAMENTO;0;CABILDO;JURAMENTO AV. Y CABILDO AV.;BELGRANO;COMUNA 13
-34.5662146200467;-58.4521262292013;596;ESTACION JOSE HERNANDEZ - LINEA D;SUBTE;GESTION PREVIA HRL;jul-15;DISPONIBLE;LINEA D;CABILDO;0;VIRREY DEL PINO;CABILDO AV. Y PINO, VIRREY DEL;BELGRANO;COMUNA 13
-34.5700115457276;-58.4446699003404;591;ESTACION OLLEROS - LINEA D;SUBTE;GESTION PREVIA HRL;jul-15;DISPONIBLE;LINEA D;LACROZE;0;CABILDO;LACROZE, FEDERICO AV. Y CABILDO AV.;PALERMO;COMUNA 14
-34.5751744284973;-58.4350113441592;586;ESTACION MINISTRO CARRANZA - LINEA D;SUBTE;GESTION PREVIA HRL;jul-15;DISPONIBLE;LINEA D;DORREGO;0;SANTA FE;DORREGO Y SANTA FE AV.;PALERMO;COMUNA 14
-34.599637225615;-58.3931270745717;580;ESTACION CALLAO - LINEA D;SUBTE;GESTION PREVIA HRL;jul-15;DISPONIBLE;LINEA D;CALLAO;0;CORDOBA;CALLAO AV. Y CORDOBA AV.;BALVANERA;COMUNA 3
-34.5944248440641;-58.4023958478884;577;ESTACION PUEYRREDON  - LINEA D;SUBTE;GESTION PREVIA HRL;jul-15;DISPONIBLE;LINEA D;PUEYRREDON;0;SANTA FE;PUEYRREDON AV. Y SANTA FE AV.;RECOLETA;COMUNA 2
-34.5882372352057;-58.4112947370444;573;ESTACION BULNES - LINEA D;SUBTE;GESTION PREVIA HRL;jul-15;DISPONIBLE;LINEA D;BULNES;0;SANTA FE;BULNES Y SANTA FE AV.;PALERMO;COMUNA 14
-34.5851555763336;-58.415955515409;569;ESTACION R. SCALABRINI ORTIZ - LINEA D;SUBTE;GESTION PREVIA HRL;jul-15;DISPONIBLE;LINEA D;SCALABRINI ORTIZ;0;SANTA FE;SCALABRINI ORTIZ, RAUL Y SANTA FE AV.;PALERMO;COMUNA 14
-34.5916302763783;-58.4071584490875;563;ESTACION AGUERO - LINEA D;SUBTE;GESTION PREVIA HRL;jul-15;DISPONIBLE;LINEA D;AGUERO;0;SANTA FE;AGUERO Y SANTA FE AV.;RECOLETA;COMUNA 2
-34.6015879654865;-58.3851434461024;557;ESTACION TRIBUNALES - LINEA D;SUBTE;GESTION PREVIA HRL;jul-15;DISPONIBLE;LINEA D;TUCUMAN;0;TALCAHUANO;TUCUMAN Y TALCAHUANO;SAN NICOLAS;COMUNA 1
-34.6089389006323;-58.406039193396;556;ESPACIO SUBTE DIGITAL ONCE - 30 DE DICIEMBRE - LINEA H;SUBTE;GESTION PREVIA HRL;jul-15;DISPONIBLE;LINEA H;MITRE;0;PUEYRREDON;MITRE, BARTOLOME Y PUEYRREDON AV.;BALVANERA;COMUNA 3
-34.6230984703822;-58.4023312218609;555;ESPACIO SUBTE DIGITAL HUMBERTO 1º - LINEA H;SUBTE;GESTION PREVIA HRL;jul-15;DISPONIBLE;LINEA H;JUJUY;0;HUMBERTO PRIMO;JUJUY AV. Y HUMBERTO 1;SAN CRISTOBAL;COMUNA 3
-34.6357422261638;-58.3989472204614;554;ESPACIO SUBTE DIGITAL CASEROS - LINEA H;SUBTE;GESTION PREVIA HRL;jul-15;DISPONIBLE;LINEA H;CASEROS;0;JUJUY;CASEROS AV. Y JUJUY AV.;PARQUE PATRICIOS;COMUNA 4
-34.6092400867061;-58.3736804948211;553;ESPACIO SUBTE DIGITAL BOLIVAR - LINEA E;SUBTE;GESTION PREVIA HRL;jul-15;DISPONIBLE;LINEA E;JULIO A. ROCA;0;YRIGOYEN;ROCA, JULIO A., PRESIDENTE AV. Y YRIGOYEN, HIPOLITO;MONSERRAT;COMUNA 1
-34.6078001792052;-58.3739569974545;552;ESPACIO SUBTE DIGITAL CATEDRAL - LINEA D;SUBTE;GESTION PREVIA HRL;jul-15;DISPONIBLE;LINEA D;ROQUE SAENZ PEôA;0;RIVADAVIA;SAENZ PEôA, ROQUE, PRES. AV. Y RIVADAVIA AV.;MONSERRAT;COMUNA 1
-34.6042390960248;-58.3805632618275;551;ESPACIO SUBTE DIGITAL 9 DE JULIO LINEA D;SUBTE;GESTION PREVIA HRL;jul-15;DISPONIBLE;LINEA D;ROQUE SAENZ PEôA;0;CARLOS PELLEGRINI;SAENZ PEôA, ROQUE, PRES. AV. Y PELLEGRINI, CARLOS;SAN NICOLAS;COMUNA 1
-34.5997643798604;-58.3979272085267;550;ESPACIO SUBTE DIGITAL FACULTAD DE MEDICINA - LINEA D;SUBTE;GESTION PREVIA HRL;jul-15;DISPONIBLE;LINEA D;CORDOBA;0;URIBURU;CORDOBA AV. Y URIBURU JOSE E., PRES.;BALVANERA;COMUNA 3
-34.5815040333635;-58.4210828778419;549;ESPACIO SUBTE DIGITAL PLAZA ITALIA - LINEA D;SUBTE;GESTION PREVIA HRL;jul-15;DISPONIBLE;LINEA D;SANTA FE;0;THAMES;SANTA FE AV. Y THAMES;PALERMO;COMUNA 14
-34.5786635010942;-58.425252448352;548;ESPACIO SUBTE DIGITAL PALERMO - LINEA D;SUBTE;GESTION PREVIA HRL;jul-15;DISPONIBLE;LINEA D;SANTA FE;0;GODOY CRUZ;SANTA FE AV. Y GODOY CRUZ;PALERMO;COMUNA 14
-34.5751711958501;-58.4350097564353;547;ESPACIO SUBTE DIGITAL CARRANZA - LINEA D;SUBTE;GESTION PREVIA HRL;jul-15;DISPONIBLE;LINEA D;SANTA FE;0;DORREGO;SANTA FE AV. Y DORREGO;PALERMO;COMUNA 14
-34.6029923433781;-58.3699297247645;546;ESPACIO SUBTE DIGITAL ALEM - LINEA B;SUBTE;GESTION PREVIA HRL;jul-15;DISPONIBLE;LINEA B;ALEM;0;CORRIENTES;ALEM, LEANDRO N. AV. Y CORRIENTES AV.;SAN NICOLAS;COMUNA 1
-34.6044180631755;-58.3923081544692;545;ESPACIO SUBTE DIGITAL CALLAO - LINEA B;SUBTE;GESTION PREVIA HRL;jul-15;DISPONIBLE;LINEA B;CALLAO;0;CORRIENTES;CALLAO AV. Y CORRIENTES AV.;SAN NICOLAS;COMUNA 1
-34.6307070600453;-58.469639651188;544;ESPACIO SUBTE DIGITAL SAN PEDRITO - LINEA A;SUBTE;GESTION PREVIA HRL;jul-15;DISPONIBLE;LINEA A;NAZCA;0;RIVADAVIA;NAZCA AV. Y RIVADAVIA AV.;FLORES;COMUNA 7
-34.6120039293508;-58.4797546183575;543;CMB Nº 13;HOSPITALES Y CENTROS DE SALUD;GESTION PREVIA HRL;jun-15;DISPONIBLE;CMB;CAMARONES;2834;;CAMARONES 2834;VILLA SANTA RITA;COMUNA 11
-34.6193106613858;-58.4651482800009;541;CMB Nº 12;HOSPITALES Y CENTROS DE SALUD;GESTION PREVIA HRL;jun-15;DISPONIBLE;CMB;PAEZ;2283;;PAEZ 2283;FLORES;COMUNA 7
-34.6559179970118;-58.4556782711074;540;SECHI PLAZA CARRILLO;ESPACIO PUBLICO;GESTION PREVIA HRL;jun-15;DISPONIBLE;INCLUSION;ACOSTA;2461;;ACOSTA, MARIANO 2461;VILLA SOLDATI;COMUNA 8
-34.660474033834;-58.4471031767715;537;SECHI SEDE BARRIO FATIMA;ESPACIO PUBLICO;GESTION PREVIA HRL;jun-15;DISPONIBLE;INCLUSION;PERGAMINO;2950;;PERGAMINO 2950;VILLA SOLDATI;COMUNA 8
-34.6409743206695;-58.4316876865409;536;CMB Nº 8;HOSPITALES Y CENTROS DE SALUD;GESTION PREVIA HRL;may-15;DISPONIBLE;CMB;LA CAPITAL;1131;;LA CAPITAL 1131;PARQUE CHACABUCO;COMUNA 7
-34.6452086369702;-58.5124123417808;535;CMB Nº 7;HOSPITALES Y CENTROS DE SALUD;GESTION PREVIA HRL;may-15;DISPONIBLE;CMB;PATRON;6119;;PATRON 6119;LINIERS;COMUNA 9
-34.6196032137453;-58.3937070289882;534;CMB Nº 6;HOSPITALES Y CENTROS DE SALUD;GESTION PREVIA HRL;may-15;DISPONIBLE;CMB;ESTADOS UNIDOS;1936;;ESTADOS UNIDOS 1936;SAN CRISTOBAL;COMUNA 3
-34.6548670990032;-58.3795260056173;533;POSTA DIGITAL - CMD;ESPACIO PUBLICO;GESTION PREVIA HRL;may-15;DISPONIBLE;INCLUSION;ALGARROBO;1041;;ALGARROBO 1041;BARRACAS;COMUNA 4
-34.6084660945371;-58.4350465839634;531;INST. DE ZOONOSIS LUIS PASTEUR;HOSPITALES Y CENTROS DE SALUD;GESTION PREVIA HRL;may-15;DISPONIBLE;HOSPITAL;DIAZ VELEZ;4821;;DIAZ VELEZ AV. 4821;CABALLITO;COMUNA 6
-34.6097192799921;-58.4074178685168;530;ESTACION SALUDABLE PLAZA MISERERE;HOSPITALES Y CENTROS DE SALUD;GESTION PREVIA HRL;may-15;DISPONIBLE;ESTACION SALUDABLE;PUEYRREDON;0;BARTOLOME MITRE;PUEYRREDON AV. Y MITRE, BARTOLOME;BALVANERA;COMUNA 3
-34.6284891515178;-58.4636224864458;529;ESTACION SALUDABLE PLAZA FLORES;HOSPITALES Y CENTROS DE SALUD;GESTION PREVIA HRL;may-15;DISPONIBLE;ESTACION SALUDABLE;FRAY CAYETANO RODRIGUEZ;0;RIVADAVIA;FRAY CAYETANO RODRIGUEZ Y RIVADAVIA AV.;FLORES;COMUNA 7
-34.6378829374324;-58.4059199094467;528;ESTACION SALUDABLE PARQUE PATRICIOS;HOSPITALES Y CENTROS DE SALUD;GESTION PREVIA HRL;may-15;DISPONIBLE;ESTACION SALUDABLE;PATAGONES;0;MONTEAGUDO;PATAGONES Y MONTEAGUDO;PARQUE PATRICIOS;COMUNA 4
-34.5916779789863;-58.4481111164194;527;ESTACION SALUDABLE PARQUE LOS ANDES;HOSPITALES Y CENTROS DE SALUD;GESTION PREVIA HRL;may-15;DISPONIBLE;ESTACION SALUDABLE;JORGE NEWBERY;4100;;NEWBERY, JORGE AV. 4100;CHACARITA;COMUNA 15
-34.5976564671343;-58.4752130047154;525;HTAL. DE EMERG. PSIQUIATRICAS TORCUATO DE ALVEAR;HOSPITALES Y CENTROS DE SALUD;GESTION PREVIA HRL;may-15;DISPONIBLE;HOSPITAL;WARNES;2630;;WARNES AV. 2630;PATERNAL;COMUNA 15
-34.6432024419744;-58.4108974552092;524;HTAL. J. A. PENNA;HOSPITALES Y CENTROS DE SALUD;GESTION PREVIA HRL;may-15;DISPONIBLE;HOSPITAL;PEDRO CHUTRO;3380;;CHUTRO, PEDRO, PROF., DR. 3380;PARQUE PATRICIOS;COMUNA 4
-34.6393032299615;-58.3843648643223;523;HTAL. DE SALUD MENTAL BRAULIO MOYANO;HOSPITALES Y CENTROS DE SALUD;GESTION PREVIA HRL;may-15;DISPONIBLE;HOSPITAL;BRANDSEN;2570;;BRANDSEN 2570;BARRACAS;COMUNA 4
-34.6391665336357;-58.4024121525409;522;CENTRO DEL DISTRITO TECNOLOGICO (ESPACIOS DE RECEPCION AL PUBLICO);ESPACIO PUBLICO;GESTION PREVIA HRL;abr-15;DISPONIBLE;DISTRITO TECNOLOGICO;USPALLATA;2802;;USPALLATA 2802;PARQUE PATRICIOS;COMUNA 4
-34.5733898111286;-58.4145093167028;512;PLAZA RAMON FERNANDEZ;PARQUES Y PLAZAS;GESTION PREVIA HRL;mar-15;DISPONIBLE;PARQUES Y PLAZAS;SARMIENTO;0;IRAOLA;SARMIENTO AV. Y IRAOLA AV.;PALERMO;COMUNA 14
-34.640258803505;-58.4085884120845;511;PZTA. DR. GENARO GIACOBINI;PARQUES Y PLAZAS;GESTION PREVIA HRL;abr-15;DISPONIBLE;PARQUES Y PLAZAS;USPALLATA;0;PEPIRI;USPALLATA Y PEPIRI;PARQUE PATRICIOS;COMUNA 4
-34.6445294775024;-58.4104745715627;510;PLAZA JOSE C. PAZ;PARQUES Y PLAZAS;GESTION PREVIA HRL;abr-15;DISPONIBLE;PARQUES Y PLAZAS;JOSE C. PAZ;0;DIOGENES TABORDA;PAZ, JOSE C. Y TABORDA, DIOGENES;PARQUE PATRICIOS;COMUNA 4
-34.6422697864467;-58.4097209295311;509;PARQUE URIBURU;PARQUES Y PLAZAS;GESTION PREVIA HRL;abr-15;DISPONIBLE;PARQUES Y PLAZAS;PEPIRI;0;PEDRO CHUTRO;PEPIRI Y CHUTRO, PEDRO, PROF., DR.;PARQUE PATRICIOS;COMUNA 4
-34.638963729305;-58.4089913501943;508;PARQUE PATRICIOS (DISTRITO TECNOLOGICO);PARQUES Y PLAZAS;GESTION PREVIA HRL;abr-15;DISPONIBLE;PARQUES Y PLAZAS;CASEROS;0;ALMAFUERTE;CASEROS AV. Y ALMAFUERTE AV.;BOEDO;COMUNA 5
-34.6643661847337;-58.4668024158405;507;ESTACION SALUDABLE PARQUE INDOAMERICANO;HOSPITALES Y CENTROS DE SALUD;GESTION PREVIA HRL;abr-15;DISPONIBLE;ESTACION SALUDABLE;CASTAôARES;0;LACARRA;CASTAôARES AV. Y LACARRA AV.;VILLA SOLDATI;COMUNA 8
-34.6349495301177;-58.4397298258896;506;ESTACION SALUDABLE PARQUE CHACABUCO;HOSPITALES Y CENTROS DE SALUD;GESTION PREVIA HRL;abr-15;DISPONIBLE;ESTACION SALUDABLE;ASAMBLEA;0;EMILIO MITRE;ASAMBLEA AV. Y MITRE, EMILIO;PARQUE CHACABUCO;COMUNA 7
-34.6051255094866;-58.43456604098;505;ESTACION SALUDABLE PARQUE CENTENARIO;HOSPITALES Y CENTROS DE SALUD;GESTION PREVIA HRL;abr-15;DISPONIBLE;ESTACION SALUDABLE;ANTONIO MACHADO;0;PATRICIAS ARGENTINAS;MACHADO, ANTONIO Y PATRICIAS ARGENTINAS AV.;CABALLITO;
-34.6453579639086;-58.4755730884447;504;ESTACION SALUDABLE PARQUE AVELLANEDA;HOSPITALES Y CENTROS DE SALUD;GESTION PREVIA HRL;abr-15;DISPONIBLE;ESTACION SALUDABLE;BILBAO;0;LACARRA;BILBAO, FRANCISCO AV. Y LACARRA AV.;PARQUE AVELLANEDA;COMUNA 9
-34.6269400252844;-58.382230244483;503;ESTACION SALUDABLE CONSTITUCION;HOSPITALES Y CENTROS DE SALUD;GESTION PREVIA HRL;abr-15;DISPONIBLE;ESTACION SALUDABLE;JUAN DE GARAY;0;LIMA;GARAY, JUAN DE AV. Y LIMA;CONSTITUCION;COMUNA 1
-34.6044987708221;-58.4054498832977;502;ESTACION SALUDABLE CORRIENTES LINEA H;HOSPITALES Y CENTROS DE SALUD;GESTION PREVIA HRL;mar-15;DISPONIBLE;ESTACION SALUDABLE;CORRIENTES;0;PUEYRREDON;CORRIENTES AV. Y PUEYRREDON AV.;BALVANERA;COMUNA 3
-34.6147258053099;-58.4276435228447;500;HTAL. DE ODONTOLOGIA  J. DUEôAS;HOSPITALES Y CENTROS DE SALUD;GESTION PREVIA HRL;abr-15;DISPONIBLE;HOSPITAL;MUôIZ;15;;MUôIZ 15;ALMAGRO;COMUNA 5
-34.5845100290469;-58.4026050472699;499;HTAL. ODONTOLOGICO DR. R. CARRILLO (EX NACIONAL);HOSPITALES Y CENTROS DE SALUD;GESTION PREVIA HRL;abr-15;DISPONIBLE;HOSPITAL;SANCHEZ DE BUSTAMANTE;2529;;SANCHEZ DE BUSTAMANTE 2529;RECOLETA;COMUNA 2
-34.553907886517;-58.4408846202799;498;HTAL. DE REHABILITACION PSICOFISICA;HOSPITALES Y CENTROS DE SALUD;GESTION PREVIA HRL;abr-15;DISPONIBLE;HOSPITAL;ECHEVERRIA;955;;ECHEVERRIA 955;BELGRANO;COMUNA 13
-34.6366246934182;-58.3821666207014;497;HTAL. DE SALUD MENTAL J. BORDA;HOSPITALES Y CENTROS DE SALUD;GESTION PREVIA HRL;abr-13;DISPONIBLE;HOSPITAL;RAMON CARRILLO;375;;CARRILLO, RAMON, DR. 375;BARRACAS;COMUNA 4
-34.6241255739229;-58.4694760287131;496;HTAL. ALVAREZ;HOSPITALES Y CENTROS DE SALUD;GESTION PREVIA HRL;abr-15;DISPONIBLE;HOSPITAL;ARANGUREN;2701;;ARANGUREN, JUAN F., DR. 2701;FLORES;COMUNA 7
-34.5845643853643;-58.4008016124095;495;HTAL. RIVADAVIA;HOSPITALES Y CENTROS DE SALUD;GESTION PREVIA HRL;mar-15;DISPONIBLE;HOSPITAL;LAS HERAS;2670;;LAS HERAS GENERAL AV. 2670;RECOLETA;COMUNA 2
-34.6176346384995;-58.4095811667103;493;HTAL. RAMOS MEJIA;HOSPITALES Y CENTROS DE SALUD;GESTION PREVIA HRL;mar-15;DISPONIBLE;HOSPITAL;GRAL URQUIZA;609;;URQUIZA, GRAL. 609;BALVANERA;COMUNA 3
-34.6030823411655;-58.3809152482781;492;GALERIA PASAJE OBELISCO NORTE;ESPACIO PUBLICO;GESTION PREVIA HRL;dic-14;DISPONIBLE;OTROS ESTABLECIMIENTOS;PELLEGRINI;451;;PELLEGRINI, CARLOS 451;SAN NICOLAS;COMUNA 1
-34.6044996517548;-58.3808200499735;491;GALERIA PASAJE OBELISCO SUR;ESPACIO PUBLICO;GESTION PREVIA HRL;dic-14;DISPONIBLE;OTROS ESTABLECIMIENTOS;PELLEGRINI;327;;PELLEGRINI, CARLOS 327;SAN NICOLAS;COMUNA 1
-34.5813904368909;-58.4212278581642;485;ESTACION PLAZA ITALIA - LINEA D;SUBTE;GESTION PREVIA HRL;nov-14;DISPONIBLE;LINEA D;SANTA FE;4100;;SANTA FE AV. 4100;PALERMO;COMUNA 14
-34.5784717941763;-58.4256254111963;480;ESTACION PALERMO - LINEA D;SUBTE;GESTION PREVIA HRL;nov-14;DISPONIBLE;LINEA D;SANTA FE;4600;;SANTA FE AV. 4600;PALERMO;COMUNA 14
-34.5997567983729;-58.3978864874876;473;ESTACION FACULTAD DE MEDICINA - LINEA D;SUBTE;GESTION PREVIA HRL;nov-14;DISPONIBLE;LINEA D;CORDOBA;2100;;CORDOBA AV. 2100;BALVANERA;COMUNA 3
-34.6042293079128;-58.3805933007944;472;ESTACION 9 DE JULIO - LINEA D;SUBTE;GESTION PREVIA HRL;nov-14;DISPONIBLE;LINEA D;ROQUE SAENZ PEôA;951;;SAENZ PEôA, ROQUE, PRES. AV. 951;SAN NICOLAS;COMUNA 1
-34.6077839159391;-58.3739458317206;471;ESTACION CATEDRAL - LINEA D;SUBTE;GESTION PREVIA HRL;nov-14;DISPONIBLE;LINEA D;ROQUE SAENZ PEôA;501;;SAENZ PEôA, ROQUE, PRES. AV. 501;SAN NICOLAS;COMUNA 1
-34.5979223885568;-58.37551917489;466;FLORIDA 870;AREA CENTRAL;GESTION PREVIA HRL;mar-15;DISPONIBLE;FLORIDA;FLORIDA;870;;FLORIDA 870;RETIRO;COMUNA 1
-34.6017229371545;-58.3753948224462;465;FLORIDA 540;AREA CENTRAL;GESTION PREVIA HRL;mar-15;DISPONIBLE;FLORIDA;FLORIDA;540;;FLORIDA 540;SAN NICOLAS;COMUNA 1
-34.6039209919588;-58.375288553859;464;FLORIDA 364;AREA CENTRAL;GESTION PREVIA HRL;mar-15;DISPONIBLE;FLORIDA;FLORIDA;364;;FLORIDA 364;SAN NICOLAS;COMUNA 1
-34.606006332772;-58.3751688477101;463;FLORIDA 180;AREA CENTRAL;GESTION PREVIA HRL;mar-15;DISPONIBLE;FLORIDA;FLORIDA;180;;FLORIDA 180;SAN NICOLAS;COMUNA 1
-34.607770081199;-58.3747963460282;462;FLORIDA 25;AREA CENTRAL;GESTION PREVIA HRL;mar-15;DISPONIBLE;FLORIDA;FLORIDA;25;;FLORIDA 25;SAN NICOLAS;COMUNA 1
-34.6065376511491;-58.375838905154;461;SUBSECRETARIA CIUDAD INTELIGENTE;ESPACIO PUBLICO;GESTION PREVIA HRL;feb-15;DISPONIBLE;EDIFICIOS DEL GCABA;SAENZ PEôA, ROQUE, PRES. AV.;637;;SAENZ PEôA, ROQUE, PRES. AV. 637;SAN NICOLAS;COMUNA 1
-34.6412710325493;-58.4069130256873;460;NUEVA SEDE GCBA (RECEPCIONES PUBLICO);ESPACIO PUBLICO;GESTION PREVIA HRL;feb-15;DISPONIBLE;EDIFICIOS DEL GCABA;LOS PATOS;3151;;LOS PATOS 3151;PARQUE PATRICIOS;COMUNA 4
-34.5715362374776;-58.4126537094449;459;ESTACION SALUDABLE ROSEDAL;HOSPITALES Y CENTROS DE SALUD;GESTION PREVIA HRL;feb-15;DISPONIBLE;ESTACION SALUDABLE;IRAOLA AV.;0;SARMIENTO AV.;IRAOLA  AV. Y SARMIENTO AV.;PALERMO;COMUNA 14
-34.6087571006617;-58.3744623222062;458;ESTACION SALUDABLE PERU;HOSPITALES Y CENTROS DE SALUD;GESTION PREVIA HRL;feb-15;DISPONIBLE;ESTACION SALUDABLE;AV. DE MAYO;570;;AV. DE MAYO 570;MONSERRAT;COMUNA 1
-34.6069507914693;-58.3751324374879;456;ESTACION SALUDABLE DIAGONAL Y FLORIDA (REFUERZO);HOSPITALES Y CENTROS DE SALUD;GESTION PREVIA HRL;feb-15;DISPONIBLE;ESTACION SALUDABLE;SAENZ PEôA, ROQUE, PRES. AV.;0;FLORIDA;SAENZ PEôA, ROQUE, PRES. AV. Y;;
-34.6505898477812;-58.4318602389053;455;SECHI PLAZA ROTONDA / ESPEJO;ESPACIO PUBLICO;GESTION PREVIA HRL;feb-15;DISPONIBLE;INCLUSION;PERITO MORENO AV.;0;FERNANDEZ DE LA CRUZ, F., GRAL. AV.;PERITO MORENO AV. FERNANDEZ DE LA CRUZ, F. GRAL. AV.;FLORES;COM
-34.6497929862705;-58.433346503365;452;SECHI NIDITO;ESPACIO PUBLICO;GESTION PREVIA HRL;feb-15;DISPONIBLE;INCLUSION;PERITO MORENO AV.;0;EREZCANO;PERITO MORENO AV. Y EREZCANO;FLORES;COMUNA 7
-34.6507409020397;-58.4378712846774;451;SECHI - CORREDOR SALUDABLE PERITO MORENO;ESPACIO PUBLICO;GESTION PREVIA HRL;feb-15;DISPONIBLE;INCLUSION;PERITO MORENO AV.;1701;;PERITO MORENO AV. 1701;NUEVA POMPEYA;COMUNA 4
-34.6211941479523;-58.3663126292929;446;COPIDIS;ESPACIO PUBLICO;GESTION PREVIA HRL;sep-14;DISPONIBLE;INCLUSION;HUERGO, ING. AV.;1189;;HUERGO, ING. AV. 1189;SAN TELMO;COMUNA 1
-34.6277409870507;-58.3796335557595;445;ESTACION CONSTITUCION;METROBUS;GESTION PREVIA HRL;sep-14;DISPONIBLE;SUR;BRASIL;0;GRAL. HORNOS;BRASIL Y HORNOS. GRAL.;CONSTITUCION;COMUNA 1
-34.5914273758394;-58.4502477016849;444;BALDOMERO FERNANDEZ MORENO;BIBLIOTECA;GESTION PREVIA HRL;sep-14;DISPONIBLE;BIBLIOTECA;CONCEPCION ARENAL;4206;;ARENAL, CONCEPCION  4206;CHACARITA;COMUNA 15
-34.6033847196876;-58.4093596424251;443;PASAJE CARLOS GARDEL;ESPACIO PUBLICO;GESTION PREVIA HRL;sep-14;DISPONIBLE;OTROS ESTABLECIMIENTOS;CARLOS GARDEL;0;JEAN JAURES;GARDEL, CARLOS Y JAURES, JEAN;BALVANERA;COMUNA 3
-34.5809046335167;-58.4197741740788;442;JARDIN ZOOLOGICO;ESPACIO PUBLICO;GESTION PREVIA HRL;sep-14;DISPONIBLE;ZOOLOGICO;CALZADA CIRCULAR PLAZA ITALIA;0;LAS HERAS GENERAL AV.;CALZADA CIRCULAR PLAZA ITALIA Y LAS HERAS GENERAL AV.;PALERMO;COMUNA 14
-34.5976889032328;-58.4302299712055;440;EMAD - ESCUELA METROPOLITANA DE ARTE DRAMATICO;ESPACIO PUBLICO;GESTION PREVIA HRL;jul-14;DISPONIBLE;OTROS ESTABLECIMIENTOS;JUFRE;141;;JUFRE 141;VILLA CRESPO;COMUNA 15
-34.6302498357574;-58.4669382206226;439;SEDE DE COMUNA 7;SEDE COMUNAL;GESTION PREVIA HRL;4TA. ETAPA / SEPTIEMBRE 2012 (SEDES COMUNALES);DISPONIBLE;SEDE COMUNAL;RIVADAVIA AV.;7202;;RIVADAVIA AV. 7202;FLORES;COMUNA 7
-34.680530730857;-58.4488644898114;438;ESTACION SALUDABLE SACTA;HOSPITALES Y CENTROS DE SALUD;GESTION PREVIA HRL;jul-14;DISPONIBLE;ESTACION SALUDABLE;AV. ROCA;0;Y AV. ESCALADA;AV. ROCA Y AV. ESCALADA;;
-34.615598175299;-58.456522993909;436;PLAZA IRLANDA - CENTRO DE JUBILADOS;PARQUES Y PLAZAS;GESTION PREVIA HRL;jul-14;DISPONIBLE;PARQUES Y PLAZAS;SEGUI;850;;SEGUI, F. J., ALTE. 850;CABALLITO;COMUNA 6
-34.6317707424733;-58.4009970869445;435;ESTACION JUJUY;METROBUS;GESTION PREVIA HRL;jul-14;DISPONIBLE;SUR;JUJUY;0;BRASIL;JUJUY AV. Y BRASIL;PARQUE PATRICIOS;COMUNA 4
-34.6052778473174;-58.3819702457595;432;ESTACION DE COMBIS;METROBUS;GESTION PREVIA HRL;;DISPONIBLE;9 DE JULIO;9 DE JULIO AV.;0;SARMIENTO;9 DE JULIO AV. Y SARMIENTO;SAN NICOLAS;COMUNA 1
-34.5775415770425;-58.426978337133;431;ESTACION SALUDABLE PACIFICO;HOSPITALES Y CENTROS DE SALUD;GESTION PREVIA HRL;jul-14;DISPONIBLE;ESTACION SALUDABLE;SANTA FE;0;BULLRICH;SANTA FE AV. Y BULLRICH, INT. AV.;PALERMO;COMUNA 14
-34.5926733185879;-58.3741427089095;429;ESTACION SALUDABLE RETIRO;HOSPITALES Y CENTROS DE SALUD;GESTION PREVIA HRL;jul-14;DISPONIBLE;ESTACION SALUDABLE;DEL LIBERTADOR;0;RAMOS MEJIA;DEL LIBERTADOR AV. Y RAMOS MEJIA, JOSE MARIA, DR. AV.;RETIRO;COMUNA 1
-34.6381491094026;-58.4944126578934;428;CENTRO DE DIA NRO. 27;ESPACIO PUBLICO;GESTION PREVIA HRL;jul-14;DISPONIBLE;INCLUSION;RAMON FALCON;4778;;FALCON, RAMON L.,CNEL. 4778;VILLA LURO;COMUNA 10
-34.6442007919524;-58.412013617429;426;DISTRITO TECNOLOGICO MIRIôAY 3532;ESPACIO PUBLICO;GESTION PREVIA HRL;jun-14;DISPONIBLE;DISTRITO TECNOLOGICO;MIRIôAY;3532;;MIRIôAY 3532;PARQUE PATRICIOS;COMUNA 4
-34.6438312415118;-58.4117103927509;425;DISTRITO TECNOLOGICO CORTAJARENA 3514;ESPACIO PUBLICO;GESTION PREVIA HRL;jun-14;DISPONIBLE;DISTRITO TECNOLOGICO;CORTEJARENA;3514;;CORTEJARENA, JOSE A. 3514;PARQUE PATRICIOS;COMUNA 4
-34.6429170762078;-58.4120568132717;424;DISTRITO TECNOLOGICO DR. PROF. P. CHUTRO 3434;ESPACIO PUBLICO;GESTION PREVIA HRL;jun-14;DISPONIBLE;DISTRITO TECNOLOGICO;CHUTRO;3434;;CHUTRO, PEDRO, PROF., DR. 3434;PARQUE PATRICIOS;COMUNA 4
-34.6417387733591;-58.4126983663937;423;DISTRITO TECNOLOGICO ALMAFUERTE Y PUNA;ESPACIO PUBLICO;GESTION PREVIA HRL;jun-14;DISPONIBLE;DISTRITO TECNOLOGICO;ALMAFUERTE;0;PUNA;ALMAFUERTE AV. Y PUNA;PARQUE PATRICIOS;COMUNA 4
-34.6396184160357;-58.4118257380824;422;DISTRITO TECNOLOGICO ALMAFUERTE Y POMAR;ESPACIO PUBLICO;GESTION PREVIA HRL;jun-14;DISPONIBLE;DISTRITO TECNOLOGICO;ALMAFUERTE;0;POMAR;ALMAFUERTE AV. Y POMAR, GREGORIO TTE. CNEL.;NUEVA POMPEYA;COMUNA 4
-34.6182239809075;-58.413540413247;421;CENTRO DE DIA NRO. 17;ESPACIO PUBLICO;GESTION PREVIA HRL;jul-14;DISPONIBLE;INCLUSION;AGRELO;3356;;AGRELO 3356;ALMAGRO;COMUNA 5
-34.6247820936002;-58.3761999543141;420;CENTRO DE DIA NRO. 19;ESPACIO PUBLICO;GESTION PREVIA HRL;jul-14;DISPONIBLE;INCLUSION;JUAN DE GARAY;765;;GARAY, JUAN DE AV. 765;SAN TELMO;COMUNA 1
-34.6416736607398;-58.4091212538291;419;DISTRITO TECNOLOGICO PEPIRI Y LOS PATOS;ESPACIO PUBLICO;GESTION PREVIA HRL;jun-14;DISPONIBLE;DISTRITO TECNOLOGICO;PEPIRI;0;LOS PATOS;PEPIRI Y LOS PATOS;PARQUE PATRICIOS;COMUNA 4
-34.6040297788742;-58.3857528339668;418;CORRIENTES 1350;AREA CENTRAL;GESTION PREVIA HRL;jun-14;DISPONIBLE;CORRIENTES;CORRIENTES;1350;;CORRIENTES AV. 1350;SAN NICOLAS;COMUNA 1
-34.5797587169826;-58.4306316576717;417;CENTRO DE DIA NRO. 9;ESPACIO PUBLICO;GESTION PREVIA HRL;jul-14;DISPONIBLE;INCLUSION;PARAGUAY;5170;;PARAGUAY 5170;PALERMO;COMUNA 14
-34.6039481985071;-58.3843421626731;416;CORRIENTES 1250;AREA CENTRAL;GESTION PREVIA HRL;jun-14;DISPONIBLE;CORRIENTES;CORRIENTES;1250;;CORRIENTES AV. 1250;SAN NICOLAS;COMUNA 1
-34.6038617220974;-58.3828744091875;415;CORRIENTES 1150;AREA CENTRAL;GESTION PREVIA HRL;jun-14;DISPONIBLE;CORRIENTES;CORRIENTES;1150;;CORRIENTES AV. 1150;SAN NICOLAS;COMUNA 1
-34.5811910834447;-58.5031971356607;414;CENTRO DE DIA NRO. 8;ESPACIO PUBLICO;GESTION PREVIA HRL;jul-14;DISPONIBLE;INCLUSION;CONDARCO;5155;;CONDARCO 5155;VILLA PUEYRREDON;COMUNA 12
-34.5783955977772;-58.3859897878331;413;PORTAL INCLUSIVO 31. EDIF. POLICIA METROPOLITANA;ESPACIO PUBLICO;GESTION PREVIA HRL;;DISPONIBLE;INCLUSION;CASTILLO, RAMON S., PRES. AV.;1728;;CASTILLO, RAMON S., PRES. AV. 1728;RETIRO;COMUNA 1
-34.6383980825525;-58.4133764153874;412;DISTRITO TECNOLOGICO CASEROS 3405;ESPACIO PUBLICO;GESTION PREVIA HRL;jun-14;DISPONIBLE;DISTRITO TECNOLOGICO;CASEROS;3405;;CASEROS AV. 3405;BOEDO;COMUNA 5
-34.6044879535193;-58.4054498907215;403;ESTACION CORRIENTES - LINEA H;SUBTE;GESTION PREVIA HRL;;DISPONIBLE;LINEA H;CORRIENTES AV.;0;PUEYRREDON AV.;CORRIENTES AV. Y PUEYRREDON AV.;BALVANERA;COMUNA 3
-34.6058146807227;-58.4137369658183;402;CONSERVATORIO SUPERIOR DE MUSICA MANUEL DE FALLA;ESPACIO PUBLICO;GESTION PREVIA HRL;jul-14;DISPONIBLE;OTROS ESTABLECIMIENTOS;GALLO;238;;GALLO 238;ALMAGRO;COMUNA 5
-34.6370431670748;-58.4109273635771;401;DISTRITO TECNOLOGICO SANCHEZ DE LORIA Y RONDEAU;ESPACIO PUBLICO;GESTION PREVIA HRL;jun-14;DISPONIBLE;DISTRITO TECNOLOGICO;SANCHEZ DE LORIA;0;RONDEAU;SANCHEZ DE LORIA AV. Y RONDEAU;BOEDO;COMUNA 5
-34.6059998516346;-58.3776505339998;400;MINISTERIO DE MODERNIZACION;ESPACIO PUBLICO;GESTION PREVIA HRL;jul-14;DISPONIBLE;EDIFICIOS DEL GCABA;ROQUE SAENZ PEôA;788;;SAENZ PEôA, ROQUE, PRES. AV. 788;SAN NICOLAS;COMUNA 1
-34.6045636838448;-58.4054694625903;399;ESPACIO SUBTE DIGITAL PUEYRREDON - LINEA B;SUBTE;GESTION PREVIA HRL;jul-14;DISPONIBLE;LINEA B;CORRIENTES;0;PUEYRREDON;CORRIENTES AV. Y PUEYRREDON AV.;BALVANERA;COMUNA 3
-34.6381590606751;-58.4116257957169;398;DISTRITO TECNOLOGICO CASEROS Y ALMAFUERTE;ESPACIO PUBLICO;GESTION PREVIA HRL;jun-14;DISPONIBLE;DISTRITO TECNOLOGICO;CASEROS;0;ALMAFUERTE;CASEROS AV. Y ALMAFUERTE AV.;BOEDO;COMUNA 5
-34.6725298671986;-58.457660033764;394;CENTRO DE ATENCION PRIMARIA DE ALTA RESOLUCION CECILIA GRIERSON;HOSPITALES Y CENTROS DE SALUD;GESTION PREVIA HRL;abr-14;DISPONIBLE;HOSPITAL;FERNANDEZ DE LA CRUZ F, GRAL. AV.;0;ESCALADA  AV.;FERNANDEZ DE LA CRUZ, F;;
-34.6075645003778;-58.3746718346442;392;MINISTERIO DE AMBIENTE Y ESPACIO PUBLICO;ESPACIO PUBLICO;GESTION PREVIA HRL;jul-14;DISPONIBLE;EDIFICIOS DEL GCABA;ROQUE SAENZ PEôA;570;;SAENZ PEôA, ROQUE, PRES. AV. 570;SAN NICOLAS;COMUNA 1
-34.6044585464367;-58.3914207553958;389;CORRIENTES 1750;AREA CENTRAL;GESTION PREVIA HRL;jun-14;DISPONIBLE;CORRIENTES;CORRIENTES;1750;;CORRIENTES AV. 1750;SAN NICOLAS;COMUNA 1
-34.5972607180699;-58.4760047448475;388;HOGAR SAN MARTIN;ESPACIO PUBLICO;GESTION PREVIA HRL;jul-14;DISPONIBLE;OTROS ESTABLECIMIENTOS;WARNES;2650;;WARNES AV. 2650;PATERNAL;COMUNA 15
-34.6307070870644;-58.4696396292697;383;ESTACION SAN PEDRITO - LINEA A;SUBTE;GESTION PREVIA HRL;;DISPONIBLE;LINEA A;RIVADAVIA AV.;0;SAN PEDRITO AV.;RIVADAVIA AV. Y SAN PEDRITO AV.;FLORES;COMUNA 7
-34.6355920301867;-58.3823107735532;362;HTAL. TOBAR GARCIA;HOSPITALES Y CENTROS DE SALUD;GESTION PREVIA HRL;jul-14;DISPONIBLE;HOSPITAL;RAMON CARRILLO;315;;CARRILLO, RAMON, DR. 315;BARRACAS;COMUNA 4
-34.6350614133523;-58.446934847961;360;"INSTITUTO VOCACIONAL DE ARTE "" M. J. LABARDEN"" - SEDE CURAPALIGUE";ESPACIO PUBLICO;GESTION PREVIA HRL;abr-14;DISPONIBLE;OTROS ESTABLECIMIENTOS;CURAPALIGUE;1026;;CURAPALIGUE AV. 1026;PARQUE CHACABUCO;COMUNA 7
-34.6348915984303;-58.4027254390375;352;HTAL. MATERNO INFANTIL R. SARDA;HOSPITALES Y CENTROS DE SALUD;GESTION PREVIA HRL;jul-14;DISPONIBLE;HOSPITAL;ESTEBAN DE LUCA;2151;;LUCA, ESTEBAN DE 2151;PARQUE PATRICIOS;COMUNA 4
-34.6889179089334;-58.4635183093806;351;CENTRO CULTURAL SALADILLO;ESPACIO PUBLICO;GESTION PREVIA HRL;41730;DISPONIBLE;CENTRO DE EXPOSICIONES Y CULTURALES;BERON DE ASTRADA;5920;;BERON DE ASTRADA 5920;VILLA LUGANO;COMUNA 8
-34.6053058851314;-58.3886955916161;350;CENTRO CULTURAL GENERAL SAN MARTIN;ESPACIO PUBLICO;GESTION PREVIA HRL;abr-14;DISPONIBLE;CENTRO DE EXPOSICIONES Y CULTURALES;SARMIENTO;1551;;SARMIENTO 1551;SAN NICOLAS;COMUNA 1
-34.627363456331;-58.389149770302;349;"INSTITUTO VOCACIONAL DE ARTE "" M. J. LABARDEN"" - SEDE GARAY";ESPACIO PUBLICO;GESTION PREVIA HRL;abr-14;DISPONIBLE;OTROS ESTABLECIMIENTOS;GARAY;1684;;GARAY, JUAN DE AV. 1684;CONSTITUCION;COMUNA 1
-34.6184941240534;-58.5017332862506;348;HTAL. DE REHABILITACION M. ROCCA;HOSPITALES Y CENTROS DE SALUD;GESTION PREVIA HRL;jul-14;DISPONIBLE;HOSPITAL;SEGUROLA;1949;;SEGUROLA AV. 1949;MONTE CASTRO;COMUNA 10
-34.5649499384993;-58.4711132795588;342;HTAL. PIROVANO;HOSPITALES Y CENTROS DE SALUD;GESTION PREVIA HRL;jul-14;DISPONIBLE;HOSPITAL;MONROE;3555;;MONROE AV. 3555;COGHLAN;COMUNA 12
-34.6380844777247;-58.4098981772845;340;TEMPLETE PARQUE PATRICIOS;ESPACIO PUBLICO;GESTION PREVIA HRL;abr-14;DISPONIBLE;EDIFICIOS DEL GCABA;CASEROS;3250;;CASEROS AV. 3250;PARQUE PATRICIOS;COMUNA 4
-34.6054311064096;-58.4601694091779;321;HTAL. LAGLEYZE;HOSPITALES Y CENTROS DE SALUD;GESTION PREVIA HRL;jul-14;DISPONIBLE;HOSPITAL;JUAN B. JUSTO;4151;;JUSTO, JUAN B. AV. 4151;CABALLITO;COMUNA 6
-34.6565452646213;-58.4558386728106;313;PLAZOLETA LACARRA Y SOMELLERA;PARQUES Y PLAZAS;GESTION PREVIA HRL;abr-14;DISPONIBLE;PARQUES Y PLAZAS;ACOSTA;0;CASTAôARES;ACOSTA, MARIANO Y CASTAôARES AV.;FLORES;COMUNA 7
-34.6226153068356;-58.3944342850863;310;HTAL. SANTA LUCIA;HOSPITALES Y CENTROS DE SALUD;GESTION PREVIA HRL;jul-14;DISPONIBLE;HOSPITAL;AV SAN JUAN;2021;;SAN JUAN AV. 2021;SAN CRISTOBAL;COMUNA 3
-34.5685328749955;-58.5079179241421;308;MUSEO CORNELIO SAAVEDRA;MUSEOS;GESTION PREVIA HRL;jul-14;DISPONIBLE;MUSEOS;CRISOLOGO LARRALDE;6293;;LARRALDE, CRISOLOGO AV. 6293;SAAVEDRA;COMUNA 12
-34.5790617636534;-58.4183798656311;307;TEATRO SARMIENTO;ESPACIO PUBLICO;GESTION PREVIA HRL;abr-14;DISPONIBLE;TEATRO;SARMIENTO AV.;2715;;SARMIENTO AV. 2715;PALERMO;COMUNA 14
-34.5685386532384;-58.4029021724375;305;PARQUE MANUEL BELGRANO (EX KTD);PARQUES Y PLAZAS;GESTION PREVIA HRL;1RA. ETAPA / DISPONIBLE;DISPONIBLE;PARQUES Y PLAZAS;SALGUERO, JERONIMO;3400;;SALGUERO, JERONIMO 3400;RECOLETA;COMUNA 2
-34.6278843798365;-58.3659244153058;302;HTAL. ARGERICH;HOSPITALES Y CENTROS DE SALUD;GESTION PREVIA HRL;jul-14;DISPONIBLE;HOSPITAL;PI Y MARGALL;750;;PI Y MARGALL 750;BOCA;COMUNA 4
-34.5902634785757;-58.4520283511224;301;CENTRO UNICO DE COORDINACION Y CONTROL;ESPACIO PUBLICO;GESTION PREVIA HRL;jul-14;DISPONIBLE;EDIFICIOS DEL GCABA;NEWBERY;0;GUZMAN;NEWBERY, JORGE AV. Y GUZMAN;CHACARITA;COMUNA 15
-34.6652895592504;-58.4431410853125;300;SECHI;ESPACIO PUBLICO;GESTION PREVIA HRL;jul-14;DISPONIBLE;INCLUSION;ACOSTA, MARIANO;0;CORRALES;ACOSTA, MARIANO Y CORRALES;VILLA SOLDATI;COMUNA 8
-34.6359544244191;-58.4625239766791;299;ENTE DE HIGIENE URBANA;ESPACIO PUBLICO;GESTION PREVIA HRL;jul-14;DISPONIBLE;EDIFICIOS DEL GCABA;VARELA;555;;VARELA AV. 555;FLORES;COMUNA 7
-34.6120207338252;-58.3705064409783;298;ENTE DE TURISMO;ESPACIO PUBLICO;GESTION PREVIA HRL;jul-14;DISPONIBLE;EDIFICIOS DEL GCABA;BALCARCE;360;;BALCARCE 360;MONSERRAT;COMUNA 1
-34.580057891379;-58.4419465224494;297;CENTRO DE EXPOSICIONES EL DORREGO;ESPACIO PUBLICO;GESTION PREVIA HRL;jul-14;DISPONIBLE;CENTRO DE EXPOSICIONES Y CULTURALES;DORREGO;0;ZAPIOLA;DORREGO Y ZAPIOLA;PALERMO;COMUNA 14
-34.6043592935059;-58.3901157642737;296;CORRIENTES 1650;AREA CENTRAL;GESTION PREVIA HRL;jun-14;DISPONIBLE;CORRIENTES;CORRIENTES;1650;;CORRIENTES AV. 1650;SAN NICOLAS;COMUNA 1
-34.6160299195915;-58.3548569013877;294;RESERVA ECOLOGICA COSTANERA SUR (SALON EVENTOS Y OFICINAS);PARQUES Y PLAZAS;GESTION PREVIA HRL;jul-14;DISPONIBLE;PARQUES Y PLAZAS;ACHAVAL RODRIGUEZ, T., DR. AV.;1402;;ACHAVAL RODRIGUEZ, T., DR. AV. 1402;PUERTO M;
-34.6041262644881;-58.3871848722785;292;CORRIENTES 1450;AREA CENTRAL;GESTION PREVIA HRL;jun-14;DISPONIBLE;CORRIENTES;CORRIENTES;1450;;CORRIENTES AV. 1450;SAN NICOLAS;COMUNA 1
-34.605494217604;-58.3806970261291;291;DIRECCION GRAL. DE INFRACCIONES;ESPACIO PUBLICO;GESTION PREVIA HRL;;DISPONIBLE;EDIFICIOS DEL GCABA;CARLOS PELLEGRINI;211;;PELLEGRINI, CARLOS 211;SAN NICOLAS;COMUNA 1
-34.6002795644387;-58.4115964109827;290;CENTRO CULTURAL ALFONSINA STORNI;ESPACIO PUBLICO;GESTION PREVIA HRL;;DISPONIBLE;CENTRO DE EXPOSICIONES Y CULTURALES;TUCUMAN;3233;;TUCUMAN 3233;BALVANERA;COMUNA 3
-34.5918177680513;-58.4172183197889;289;CENTRO CULTURAL TATO BORES;ESPACIO PUBLICO;GESTION PREVIA HRL;;DISPONIBLE;CENTRO DE EXPOSICIONES Y CULTURALES;SOLER;3929;;SOLER 3929;PALERMO;COMUNA 14
-34.6077698204081;-58.4082197456076;286;AGENCIA GUBENAMENTAL DE CONTROL;ESPACIO PUBLICO;GESTION PREVIA HRL;;DISPONIBLE;EDIFICIOS DEL GCABA;PERON, JUAN DOMINGO, TTE. GENERAL;2941;;PERON, JUAN DOMINGO, TTE. GENERAL 2941;BALVANERA;COMUNA 3
-34.6075373695418;-58.3777581653677;285;MINISTERIO DE EDUCACION GCBA;ESPACIO PUBLICO;GESTION PREVIA HRL;;DISPONIBLE;EDIFICIOS DEL GCABA;ESMERALDA;55;;ESMERALDA 55;SAN NICOLAS;COMUNA 1
-34.6384719790709;-58.4361381568079;284;CENTRO CULTURAL PLAZA FLORES;ESPACIO PUBLICO;GESTION PREVIA HRL;;DISPONIBLE;CENTRO DE EXPOSICIONES Y CULTURALES;CACHIMAYO;1675;;CACHIMAYO 1675;PARQUE CHACABUCO;COMUNA 7
-34.6063520688123;-58.3842176489055;283;JOAQUIN V. GONZALEZ;BIBLIOTECA;GESTION PREVIA HRL;;DISPONIBLE;BIBLIOTECA;PERON, JUAN DOMINGO, TTE. GENERAL;1242;;PERON, JUAN DOMINGO, TTE. GENERAL 1242;SAN NICOLAS;COMUNA 1
-34.6378141566443;-58.456448305911;282;MARIANO PELLIZA;BIBLIOTECA;GESTION PREVIA HRL;;DISPONIBLE;BIBLIOTECA;CRANWEL;819;;CRANWELL 819;FLORES;COMUNA 7
-34.6340362105459;-58.4382975013565;279;ESTANISLAO DEL CAMPO;BIBLIOTECA;GESTION PREVIA HRL;;DISPONIBLE;BIBLIOTECA;DE LAS ARTES;1210;;DE LAS ARTES 1210;PARQUE CHACABUCO;COMUNA 7
-34.6442095473877;-58.4538277741592;248;HTAL. PIôERO;HOSPITALES Y CENTROS DE SALUD;GESTION PREVIA HRL;;DISPONIBLE;HOSPITAL;VARELA;1301;;VARELA AV. 1301;FLORES;COMUNA 7
-34.5989412491147;-58.4397976402116;246;ESTACION MALABIA - OSVALDO PUGLIESE - LINEA B;SUBTE;GESTION PREVIA HRL;;DISPONIBLE;LINEA B;CORRIENTES AV.;0;MALABIA;CORRIENTES AV. Y MALABIA;VILLA CRESPO;COMUNA 15
-34.6031660406215;-58.420961056652;240;ESTACION MEDRANO - LINEA B;SUBTE;GESTION PREVIA HRL;;DISPONIBLE;LINEA B;CORRIENTES AV.;0;MEDRANO;CORRIENTES AV. Y MEDRANO AV.;ALMAGRO;COMUNA 5
-34.6044198698324;-58.3923146942135;239;ESTACION CALLAO - LINEA B;SUBTE;GESTION PREVIA HRL;;DISPONIBLE;LINEA B;CORRIENTES AV.;0;CALLAO;CORRIENTES AV. Y CALLAO AV.;SAN NICOLAS;COMUNA 1
-34.6040936483628;-58.3872962517645;236;ESTACION URUGUAY - LINEA B;SUBTE;GESTION PREVIA HRL;;DISPONIBLE;LINEA B;CORRIENTES AV.;0;URUGUAY;CORRIENTES AV. Y URUGUAY;SAN NICOLAS;COMUNA 1
-34.6340647280761;-58.4433986756609;234;CENTRO CULTURAL ADAN BUENOSAYRES;ESPACIO PUBLICO;GESTION PREVIA HRL;;DISPONIBLE;CENTRO DE EXPOSICIONES Y CULTURALES;ASAMBLEA;1200;;ASAMBLEA AV. 1200;PARQUE CHACABUCO;COMUNA 7
-34.6371958769812;-58.4060795600347;228;ESTACION PARQUE PATRICIOS - LINEA H;SUBTE;GESTION PREVIA HRL;;DISPONIBLE;LINEA H;CASEROS AV.;0;LA RIOJA;CASEROS AV. Y LA RIOJA;PARQUE PATRICIOS;COMUNA 4
-34.6042484290622;-58.3887117031641;226;CORRIENTES 1550;AREA CENTRAL;GESTION PREVIA HRL;jun-14;DISPONIBLE;CORRIENTES;CORRIENTES;1550;;CORRIENTES AV. 1550;SAN NICOLAS;COMUNA 1
-34.6148582303323;-58.3880545662544;224;ALFONSINA STORNI Y MARTIN DEL BARCO CENTENERA;BIBLIOTECA;GESTION PREVIA HRL;5TA. ETAPA / NOVIEMBRE 2012 (BIBLIOTECAS PUBLICAS);DISPONIBLE;BIBLIOTECA;REPUBLICA BOLIVARIANA DE VENEZUELA;1538;;REPUBLICA BOLIVARIANA DE ;;
-34.5691150394096;-58.4114191098301;222;PLAZA GOULD - PLANETARIO;PARQUES Y PLAZAS;GESTION PREVIA HRL;;DISPONIBLE;PARQUES Y PLAZAS;AV. SARMIENTO;0;FIGUEROA ALCORTA;SARMIENTO AV. Y FIGUEROA ALCORTA, PRES. AV.;PALERMO;COMUNA 14
-34.6286775379831;-58.3568738498806;215;USINA DEL ARTE;ESPACIO PUBLICO;GESTION PREVIA HRL;;DISPONIBLE;CENTRO DE EXPOSICIONES Y CULTURALES;DON PEDRO DE MENDOZA AV.;501;;DON PEDRO DE MENDOZA AV. 501;BOCA;COMUNA 4
-34.5927778768163;-58.3741886796675;213;TORRE MONUMENTAL;ESPACIO PUBLICO;GESTION PREVIA HRL;;DISPONIBLE;MUSEOS;DEL LIBERTADOR AV.;49;;DEL LIBERTADOR AV. 49;RETIRO;COMUNA 1
-34.6043767825154;-58.3886178630316;212;TEATRO SAN MARTIN;ESPACIO PUBLICO;GESTION PREVIA HRL;;DISPONIBLE;TEATRO;CORRIENTES AV.;1530;;CORRIENTES AV. 1530;SAN NICOLAS;COMUNA 1
-34.6457329604874;-58.4848591212175;211;SUBSEDE COMUNAL 9;SEDE COMUNAL;GESTION PREVIA HRL;;DISPONIBLE;SUBEDE COMUNAL;DIRECTORIO AV.;4344;;DIRECTORIO AV. 4344;PARQUE AVELLANEDA;COMUNA 9
-34.6321643684323;-58.4410671831614;210;SUBSEDE COMUNAL 6;SEDE COMUNAL;GESTION PREVIA HRL;;DISPONIBLE;SUBEDE COMUNAL;MITRE, EMILIO;954;;MITRE, EMILIO 954;PARQUE CHACABUCO;COMUNA 7
-34.6381304682077;-58.4103509605161;209;SUBSEDE COMUNAL 5;SEDE COMUNAL;GESTION PREVIA HRL;;DISPONIBLE;SUBEDE COMUNAL;CASEROS AV.;3250;;CASEROS AV. 3250;PARQUE PATRICIOS;COMUNA 4
-34.6014064306566;-58.4980980687797;208;SUBSEDE COMUNAL 11;SEDE COMUNAL;GESTION PREVIA HRL;;DISPONIBLE;SUBEDE COMUNAL;GUTIERREZ, RICARDO;3253;;GUTIERREZ, RICARDO 3253;VILLA DEL PARQUE;COMUNA 11
-34.6595468354037;-58.5049435876355;207;SEDE DE COMUNA 9;SEDE COMUNAL;GESTION PREVIA HRL;4TA. ETAPA / SEPTIEMBRE 2012 (SEDES COMUNALES);DISPONIBLE;SEDE COMUNAL;GORDILLO, TIMOTEO;2212;;GORDILLO, TIMOTEO 2212;MATADEROS;COMUNA 9
-34.6849235949623;-58.455093197257;206;SEDE DE COMUNA 8;SEDE COMUNAL;GESTION PREVIA HRL;4TA. ETAPA / SEPTIEMBRE 2012 (SEDES COMUNALES);DISPONIBLE;SEDE COMUNAL;ROCA, CNEL. AV.;5252;;ROCA, CNEL. AV. 5252;VILLA RIACHUELO;COMUNA 8
-34.6089557385182;-58.4312329362698;204;SEDE DE COMUNA 6;SEDE COMUNAL;GESTION PREVIA HRL;4TA. ETAPA / SEPTIEMBRE 2012 (SEDES COMUNALES);DISPONIBLE;SEDE COMUNAL;DIAZ VELEZ AV.;4558;;DIAZ VELEZ AV. 4558;CABALLITO;COMUNA 6
-34.6237712348651;-58.3939157470549;203;SEDE DE COMUNA 5;SEDE COMUNAL;GESTION PREVIA HRL;4TA. ETAPA / SEPTIEMBRE 2012 (SEDES COMUNALES);DISPONIBLE;SEDE COMUNAL;SARANDI;1273;;SARANDI 1273;SAN CRISTOBAL;COMUNA 3
-34.6284011836441;-58.3922508692999;202;POLO CIRCO;ESPACIO PUBLICO;GESTION PREVIA HRL;;DISPONIBLE;CENTRO DE EXPOSICIONES Y CULTURALES;COMBATE DE LOS POZOS;1700;AV. JUAN DE GARAY;COMBATE DE LOS POZOS 1700;PARQUE PATRICIOS;COMUNA 4
-34.6502263309906;-58.4247170117109;201;SEDE DE COMUNA 4;SEDE COMUNAL;GESTION PREVIA HRL;4TA. ETAPA / SEPTIEMBRE 2012 (SEDES COMUNALES);DISPONIBLE;SEDE COMUNAL;CALDERON DE LA BARCA, PEDRO;2906;;BARCO CENTENERA DEL 2906;VILLA DEVOTO;COMUNA 11
-34.6030254923214;-58.3966816232213;200;SEDE DE COMUNA 3;SEDE COMUNAL;GESTION PREVIA HRL;4TA. ETAPA / SEPTIEMBRE 2012 (SEDES COMUNALES);DISPONIBLE;SEDE COMUNAL;JUNIN;521;;JUNIN 521;BALVANERA;COMUNA 3
-34.5889216086894;-58.3936249720034;199;SUBSEDE COMUNAL 2;SEDE COMUNAL;GESTION PREVIA HRL;4TA. ETAPA / SEPTIEMBRE 2012 (SEDES COMUNALES);DISPONIBLE;SUBEDE COMUNAL;VICENTE LOPEZ;2050;;LOPEZ, VICENTE 2050;RECOLETA;COMUNA 2
-34.5967187592215;-58.3990151523522;197;SEDE DE COMUNA 2;SEDE COMUNAL;GESTION PREVIA HRL;4TA. ETAPA / SEPTIEMBRE 2012 (SEDES COMUNALES);DISPONIBLE;SEDE COMUNAL;URIBURU JOSE E., PRES.;1022;;URIBURU JOSE E., PRES. 1022;RECOLETA;COMUNA 2
-34.5870408901359;-58.4414454403581;196;SEDE DE COMUNA 15;SEDE COMUNAL;GESTION PREVIA HRL;4TA. ETAPA / SEPTIEMBRE 2012 (SEDES COMUNALES);DISPONIBLE;SEDE COMUNAL;CORDOBA AV.;5690;;CORDOBA AV. 5690;CHACARITA;COMUNA 15
-34.5871946684559;-58.4090752291575;195;SEDE DE COMUNA 14;SEDE COMUNAL;GESTION PREVIA HRL;4TA. ETAPA / SEPTIEMBRE 2012 (SEDES COMUNALES);DISPONIBLE;SEDE COMUNAL;BERUTI;3325;;BERUTI 3325;PALERMO;COMUNA 14
-34.5536943583089;-58.4639856684465;192;SEDE DE COMUNA 13;SEDE COMUNAL;GESTION PREVIA HRL;4TA. ETAPA / SEPTIEMBRE 2012 (SEDES COMUNALES);DISPONIBLE;SEDE COMUNAL;CABILDO AV.;3067;;CABILDO AV. 3067;NUôEZ;COMUNA 13
-34.5686236694961;-58.4827880530232;191;SEDE DE COMUNA 12;SEDE COMUNAL;GESTION PREVIA HRL;4TA. ETAPA / SEPTIEMBRE 2012 (SEDES COMUNALES);DISPONIBLE;SEDE COMUNAL;MILLER;2751;;MILLER 2751;VILLA URQUIZA;COMUNA 12
-34.6082133321452;-58.516082742722;188;SEDE DE COMUNA 11;SEDE COMUNAL;GESTION PREVIA HRL;4TA. ETAPA / SEPTIEMBRE 2012 (SEDES COMUNALES);DISPONIBLE;SEDE COMUNAL;BEIRO, FRANCISCO AV.;4629;;BEIRO, FRANCISCO AV. 4629;VILLA DEVOTO;COMUNA 11
-34.6318212184487;-58.483288168496;187;SEDE DE COMUNA 10;SEDE COMUNAL;GESTION PREVIA HRL;4TA. ETAPA / SEPTIEMBRE 2012 (SEDES COMUNALES);DISPONIBLE;SEDE COMUNAL;BACACAY;3952;;BACACAY 3952;FLORESTA;COMUNA 10
-34.600087448613;-58.3870218543798;186;SEDE DE COMUNA 1;SEDE COMUNAL;GESTION PREVIA HRL;4TA. ETAPA / SEPTIEMBRE 2012 (SEDES COMUNALES);DISPONIBLE;SEDE COMUNAL;URUGUAY AV.;740;;URUGUAY AV. 740;SAN NICOLAS;COMUNA 1
-34.5612503363944;-58.4486314420913;185;REINA BATATA (INFANTIL);BIBLIOTECA;GESTION PREVIA HRL;5TA. ETAPA / NOVIEMBRE 2012 (BIBLIOTECAS PUBLICAS);DISPONIBLE;BIBLIOTECA;LA PAMPA;0;11 DE SEPTIEMBRE DE 1888;LA PAMPA Y 11 DE SEPTIEMBRE DE 1888;BELGRANO;COMUNA 
-34.5848979513757;-58.3934316670673;184;PZA. ALVEAR / PZA. FRANCIA;PARQUES Y PLAZAS;GESTION PREVIA HRL;1RA. ETAPA / DISPONIBLE;DISPONIBLE;PARQUES Y PLAZAS;DEL LIBERTADOR AV.;0;PUEYRREDON AV.;DEL LIBERTADOR AV. Y PUEYRREDON AV.;RECOLETA;COMUNA 2
-34.6559969530935;-58.4551593478384;183;PORTAL INCLUSIVO BARRIO RAMON CARRILLO;ESPACIO PUBLICO;GESTION PREVIA HRL;;DISPONIBLE;INCLUSION;ACOSTA, MARIANO;0;PASAJE K;ACOSTA, MARIANO Y PASAJE K;VILLA SOLDATI;COMUNA 8
-34.6524242517934;-58.3761724022273;182;CENTRO DE PRIMERA INFANCIA PULGARCITO;ESPACIO PUBLICO;GESTION PREVIA HRL;jul-14;DISPONIBLE;INCLUSION;OSVALDO CRUZ;2101;;CRUZ, OSVALDO AV. 2101;BARRACAS;COMUNA 4
-34.5696999980328;-58.4116997670265;178;PLANETARIO;ESPACIO PUBLICO;GESTION PREVIA HRL;;DISPONIBLE;CENTRO DE EXPOSICIONES Y CULTURALES;SARMIENTO AV.;0;ROLDAN, BELISARIO AV.;SARMIENTO AV. Y ROLDAN, BELISARIO AV.;PALERMO;COMUNA 14
-34.5878084532115;-58.3917027809039;177;PLAZOLETA JUAN XXIII;PARQUES Y PLAZAS;GESTION PREVIA HRL;;DISPONIBLE;PARQUES Y PLAZAS;ORTIZ, ROBERTO M., PRES.;0;QUINTANA, MANUEL, PRES. AV.;ORTIZ, ROBERTO M., PRES. Y QUINTANA, MANUEL, PRES. AV.;RECOLETA;COMU
-34.6006237268021;-58.3827005890398;176;PLAZA VATICANO;PARQUES Y PLAZAS;GESTION PREVIA HRL;;DISPONIBLE;PARQUES Y PLAZAS;VIAMONTE;0;CERRITO;VIAMONTE Y CERRITO;SAN NICOLAS;COMUNA 1
-34.5945230004446;-58.3755546858542;175;PLAZA SAN MARTIN;PARQUES Y PLAZAS;GESTION PREVIA HRL;;DISPONIBLE;PARQUES Y PLAZAS;SUIPACHA;1300;;SUIPACHA 1300;RETIRO;COMUNA 1
-34.6009632750952;-58.3845916538931;173;PLAZA LAVALLE;PARQUES Y PLAZAS;GESTION PREVIA HRL;1RA. ETAPA / DISPONIBLE;DISPONIBLE;PARQUES Y PLAZAS;TUCUMAN;0;TALCAHUANO;TUCUMAN Y TALCAHUANO;SAN NICOLAS;COMUNA 1
-34.6146891377429;-58.4578191782196;172;PLAZA IRLANDA;PARQUES Y PLAZAS;GESTION PREVIA HRL;2DA. ETAPA / JULIO 2012;DISPONIBLE;PARQUES Y PLAZAS;GAONA AV.;0;ALVAREZ, DONATO, TTE. GRAL.;GAONA AV. Y ALVAREZ, DONATO, TTE. GRAL.;CABALLITO;COMUNA 6
-34.599140621116;-58.3981426030067;170;PLAZA HOUSSAY;PARQUES Y PLAZAS;GESTION PREVIA HRL;;DISPONIBLE;PARQUES Y PLAZAS;CORDOBA AV.;2100;;CORDOBA AV. 2100;BALVANERA;COMUNA 3
-34.5616662614927;-58.4548225713544;169;PLAZA GRAL. MANUEL BELGRANO;PARQUES Y PLAZAS;GESTION PREVIA HRL;3RA. ETAPA / AGOSTO 2012;DISPONIBLE;PARQUES Y PLAZAS;VUELTA DE OBLIGADO;0;JURAMENTO AV.;VUELTA DE OBLIGADO Y JURAMENTO AV.;BELGRANO;COMUNA 13
-34.6258021242455;-58.5078090359757;167;PLAZA DON BOSCO;PARQUES Y PLAZAS;GESTION PREVIA HRL;2DA. ETAPA / JULIO 2012;DISPONIBLE;PARQUES Y PLAZAS;CALDERON DE LA BARCA, PEDRO;1500;;CALDERON DE LA BARCA, PEDRO 1500;MONTE CASTRO;COMUNA 10
-34.6084164667755;-58.372155010386;166;PLAZA DE MAYO;PARQUES Y PLAZAS;GESTION PREVIA HRL;1RA. ETAPA / DISPONIBLE;DISPONIBLE;PARQUES Y PLAZAS;YRIGOYEN, HIPOLITO AV.;0;DEFENSA;YRIGOYEN, HIPOLITO AV. Y DEFENSA;MONSERRAT;COMUNA 1
-34.6033146431118;-58.3816295807524;163;PLAZA DE LA REPUBLICA;PARQUES Y PLAZAS;PRIMERA ETAPA HRL;jul-16;DISPONIBLE;PARQUES Y PLAZAS;CORRIENTES AV.;0;9 DE JULIO AV.;CORRIENTES AV. Y 9 DE JULIO AV.;SAN NICOLAS;COMUNA 1
-34.5993846139389;-58.5122468954911;160;PLAZA ARENALES (PZA. DEVOTO);PARQUES Y PLAZAS;GESTION PREVIA HRL;2DA. ETAPA / JULIO 2012;DISPONIBLE;PARQUES Y PLAZAS;MERCEDES;0;PAREJA;MERCEDES Y PAREJA;VILLA DEVOTO;COMUNA 11
-34.6054758733795;-58.3806496804856;158;EDIFICIO DEL PLATA;ESPACIO PUBLICO;GESTION PREVIA HRL;1RA. ETAPA / DISPONIBLE;DISPONIBLE;EDIFICIOS DEL GCABA;PELLEGRINI, CARLOS;200;;PELLEGRINI, CARLOS 200;SAN NICOLAS;COMUNA 1
-34.6084004956973;-58.3745760174691;157;PATIO DE LA CULTURA;ESPACIO PUBLICO;GESTION PREVIA HRL;;DISPONIBLE;EDIFICIOS DEL GCABA;DE MAYO AV.;575;;DE MAYO AV. 575;MONSERRAT;COMUNA 1
-34.6152573675007;-58.429219026885;156;PASEO DE LA VICTORIA;ESPACIO PUBLICO;GESTION PREVIA HRL;;DISPONIBLE;PARQUES Y PLAZAS;LA PLATA AV.;0;YRIGOYEN, HIPOLITO AV.;LA PLATA AV. Y YRIGOYEN, HIPOLITO AV.;CABALLITO;COMUNA 6
-34.5890715496828;-58.3937819801425;153;PASEO DE LA RECOLETA;PARQUES Y PLAZAS;GESTION PREVIA HRL;3RA. ETAPA / AGOSTO 2012;DISPONIBLE;PARQUES Y PLAZAS;JUNIN;0;LOPEZ, VICENTE;JUNIN Y LOPEZ, VICENTE;RECOLETA;COMUNA 2
-34.5573636158096;-58.4997723194923;149;PARQUE SARMIENTO;PARQUES Y PLAZAS;GESTION PREVIA HRL;1RA. ETAPA / DISPONIBLE;DISPONIBLE;PARQUES Y PLAZAS;BALBIN, RICARDO, DR. AV.;4750;;BALBIN, RICARDO, DR. AV. 4750;SAAVEDRA;COMUNA 12
-34.64782921422;-58.5140684161612;148;PARQUE SANTOJANNI;PARQUES Y PLAZAS;GESTION PREVIA HRL;2DA. ETAPA / JULIO 2012;DISPONIBLE;PARQUES Y PLAZAS;LEGUIZAMON, MARTINIANO;0;PATRON;LEGUIZAMON, MARTINIANO Y PATRON;LINIERS;COMUNA 9
-34.674653689653;-58.4413459514516;145;PARQUE ROCA;PARQUES Y PLAZAS;GESTION PREVIA HRL;3RA. ETAPA / AGOSTO 2012;DISPONIBLE;PARQUES Y PLAZAS;ROCA, CNEL. AV.;3400;;ROCA, CNEL. AV. 3400;VILLA SOLDATI;COMUNA 8
-34.63861027923;-58.4067585768479;144;PARQUE PATRICIOS;PARQUES Y PLAZAS;GESTION PREVIA HRL;3RA. ETAPA / AGOSTO 2012;DISPONIBLE;PARQUES Y PLAZAS;USPALLATA;0;MONTEAGUDO;USPALLATA Y MONTEAGUDO;PARQUE PATRICIOS;COMUNA 4
-34.5828076747071;-58.3920022966057;143;FACULTAD DE DERECHO;ESPACIO PUBLICO;GESTION PREVIA HRL;;DISPONIBLE;OTROS ESTABLECIMIENTOS;ALCORTA;0;PUEYRREDON AV.;FIGUEROA ALCORTA, PRES. AV. Y PUEYRREDON AV.;RECOLETA;COMUNA 2
-34.5898896102022;-58.450454777315;142;PARQUE LOS ANDES;PARQUES Y PLAZAS;GESTION PREVIA HRL;1RA. ETAPA / DISPONIBLE;DISPONIBLE;PARQUES Y PLAZAS;CORRIENTES AV.;0;ARENAL, CONCEPCION;CORRIENTES AV. Y ARENAL, CONCEPCION;CHACARITA;COMUNA 15
-34.6268373499491;-58.3692069287033;141;PARQUE LEZAMA;PARQUES Y PLAZAS;GESTION PREVIA HRL;1RA. ETAPA / DISPONIBLE;DISPONIBLE;PARQUES Y PLAZAS;GARCIA, MARTIN AV.;0;DEFENSA;GARCIA, MARTIN AV. Y DEFENSA;BARRACAS;COMUNA 4
-34.6652987965427;-58.4591109950493;140;PARQUE INDOAMERICANO;PARQUES Y PLAZAS;GESTION PREVIA HRL;1RA. ETAPA / DISPONIBLE;DISPONIBLE;PARQUES Y PLAZAS;ESCALADA AV.;0;CASTAôARES AV.;ESCALADA AV. Y CASTAôARES AV.;VILLA SOLDATI;COMUNA 8
-34.6338288332998;-58.3854147571991;139;PARQUE ESPAôA;PARQUES Y PLAZAS;GESTION PREVIA HRL;3RA. ETAPA / AGOSTO 2012;DISPONIBLE;PARQUES Y PLAZAS;ALCORTA, AMANCIO AV.;0;BAIGORRI;ALCORTA, AMANCIO AV. Y BAIGORRI;BARRACAS;COMUNA 4
-34.5284958723103;-58.4577579497587;138;PARQUE DE LOS NIôOS;PARQUES Y PLAZAS;GESTION PREVIA HRL;3RA. ETAPA / AGOSTO 2012;DISPONIBLE;PARQUES Y PLAZAS;PAZ, GRAL. AV.;0;CANTILO, INT.;PAZ, GRAL. AV. Y CANTILO, INT.;NUôEZ;COMUNA 13
-34.6793026146634;-58.4585264176268;136;PARQUE DE LAS VICTORIAS;PARQUES Y PLAZAS;GESTION PREVIA HRL;3RA. ETAPA / AGOSTO 2012;DISPONIBLE;PARQUES Y PLAZAS;ROCA, CNEL. AV.;0;LARRAZABAL AV.;ROCA, CNEL. AV. Y LARRAZABAL AV.;VILLA LUGANO;COMUNA 8
-34.5410387601409;-58.4382144015995;135;PARQUE DE LA MEMORIA;PARQUES Y PLAZAS;GESTION PREVIA HRL;1RA. ETAPA / DISPONIBLE;DISPONIBLE;PARQUES Y PLAZAS;OBLIGADO RAFAEL, AV.COSTANERA;5700;;OBLIGADO RAFAEL, AV.COSTANERA 5700;PALERMO;COMUNA 14
-34.6717343086363;-58.4510940952315;133;PARQUE DE LA CIUDAD;PARQUES Y PLAZAS;GESTION PREVIA HRL;2DA. ETAPA / JULIO 2012;DISPONIBLE;PARQUES Y PLAZAS;FERNANDEZ DE LA CRUZ, F., GRAL. AV.;0;ESCALADA AV.;FERNANDEZ DE LA CRUZ, F., GRAL. AV. Y ESCALADA AV.;V;
-34.6347811925796;-58.4422012066418;131;PARQUE CHACABUCO - EXTENSION;PARQUES Y PLAZAS;GESTION PREVIA HRL;3RA. ETAPA / AGOSTO 2012;DISPONIBLE;PARQUES Y PLAZAS;ASAMBLEA AV.;0;CURAPALIGUE AV.;ASAMBLEA AV. Y CURAPALIGUE AV.;PARQUE CHACABUCO;COMUNA 7
-34.634943956263;-58.4429484187357;130;PARQUE CHACABUCO;PARQUES Y PLAZAS;GESTION PREVIA HRL;1RA. ETAPA / DISPONIBLE;DISPONIBLE;PARQUES Y PLAZAS;PERON, EVA AV.;0;CURAPALIGUE;PERON, EVA AV. Y CURAPALIGUE;PARQUE CHACABUCO;COMUNA 7
-34.6070592787277;-58.4375498244725;129;PARQUE CENTENARIO - EXTENSION;PARQUES Y PLAZAS;GESTION PREVIA HRL;;DISPONIBLE;PARQUES Y PLAZAS;DIAZ VELEZ AV.;0;LOBOS, ELEODORO, DR.;DIAZ VELEZ AV. Y LOBOS, ELEODORO, DR.;CABALLITO;COMUNA 6
-34.6065385142438;-58.4357032105035;128;PARQUE CENTENARIO;PARQUES Y PLAZAS;GESTION PREVIA HRL;1RA. ETAPA / DISPONIBLE;DISPONIBLE;PARQUES Y PLAZAS;DIAZ VELEZ AV.;0;LOBOS, ELEODORO, DR.;DIAZ VELEZ AV. Y LOBOS, ELEODORO, DR.;CABALLITO;COMUNA 6
-34.6451854780061;-58.4791780437484;127;PARQUE AVELLANEDA;PARQUES Y PLAZAS;GESTION PREVIA HRL;3RA. ETAPA / AGOSTO 2012;DISPONIBLE;PARQUES Y PLAZAS;DIRECTORIO AV.;0;LACARRA;DIRECTORIO AV. Y LACARRA;PARQUE AVELLANEDA;COMUNA 9
-34.5705766106117;-58.421432051906;125;MUSEO SIVORI;MUSEOS;GESTION PREVIA HRL;;DISPONIBLE;MUSEOS;ISABEL, INFANTA AV.;555;;ISABEL, INFANTA AV. 555;PALERMO;COMUNA 14
-34.6177388141442;-58.4525188846842;124;MUSEO LUIS PERLOTTI;MUSEOS;GESTION PREVIA HRL;;DISPONIBLE;MUSEOS;PUJOL;642;;PUJOL 642;CABALLITO;COMUNA 6
-34.5612675974179;-58.4556919522339;123;MUSEO LARRETA;MUSEOS;GESTION PREVIA HRL;;DISPONIBLE;MUSEOS;JURAMENTO AV.;2291;;JURAMENTO AV. 2291;BELGRANO;COMUNA 13
-34.5796091968091;-58.4049701604744;122;MUSEO JOSE HERNANDEZ;MUSEOS;GESTION PREVIA HRL;;DISPONIBLE;MUSEOS;DEL LIBERTADOR AV.;2373;;DEL LIBERTADOR AV. 2373;PALERMO;COMUNA 14
-34.5910625898017;-58.3802370529598;121;MUSEO FERNANDEZ BLANCO;MUSEOS;GESTION PREVIA HRL;;DISPONIBLE;MUSEOS;SUIPACHA;1422;;SUIPACHA 1422;RETIRO;COMUNA 1
-34.6294879750609;-58.3570953812576;119;MUSEO DEL CINE;MUSEOS;GESTION PREVIA HRL;;DISPONIBLE;MUSEOS;CAFFARENA, AGUSTIN R.;49;;CAFFARENA, AGUSTIN R. 49;BOCA;COMUNA 4
-34.6104476482742;-58.3722231289722;117;MUSEO DE LA CIUDAD;MUSEOS;GESTION PREVIA HRL;;DISPONIBLE;MUSEOS;DEFENSA;219;;DEFENSA 219;MONSERRAT;COMUNA 1
-34.6219734371874;-58.3705271174278;116;MUSEO DE ARTE MODERNO (MAMBA);MUSEOS;GESTION PREVIA HRL;;DISPONIBLE;MUSEOS;SAN JUAN AV.;350;;SAN JUAN AV. 350;SAN TELMO;COMUNA 1
-34.6016784123375;-58.4077622868369;115;MUSEO CARLOS GARDEL;MUSEOS;GESTION PREVIA HRL;;DISPONIBLE;MUSEOS;JAURES, JEAN;735;;JAURES, JEAN 735;BALVANERA;COMUNA 3
-34.6348297946947;-58.5264579247518;114;MIGUEL CANE;BIBLIOTECA;GESTION PREVIA HRL;;DISPONIBLE;BIBLIOTECA;JUSTO, JUAN B. AV.;9668;;JUSTO, JUAN B. AV. 9668;LINIERS;COMUNA 9
-34.5995792789846;-58.3890008786666;113;MANUEL GALVEZ;BIBLIOTECA;GESTION PREVIA HRL;5TA. ETAPA / NOVIEMBRE 2012 (BIBLIOTECAS PUBLICAS);DISPONIBLE;BIBLIOTECA;CORDOBA AV.;1558;;CORDOBA AV. 1558;SAN NICOLAS;COMUNA 1
-34.5636772401267;-58.4525973819311;112;LEOPOLDO LUGONES;BIBLIOTECA;GESTION PREVIA HRL;5TA. ETAPA / NOVIEMBRE 2012 (BIBLIOTECAS PUBLICAS);DISPONIBLE;BIBLIOTECA;LA PAMPA;2215;;LA PAMPA 2215;BELGRANO;COMUNA 13
-34.5978075534664;-58.4299312778028;111;JULIO CORTAZAR;BIBLIOTECA;GESTION PREVIA HRL;5TA. ETAPA / NOVIEMBRE 2012 (BIBLIOTECAS PUBLICAS);DISPONIBLE;BIBLIOTECA;LAVALLEJA;924;;LAVALLEJA 924;VILLA CRESPO;COMUNA 15
-34.6651895954544;-58.4743663619951;110;JULIO CESAR SAGUIER;BIBLIOTECA;GESTION PREVIA HRL;5TA. ETAPA / NOVIEMBRE 2012 (BIBLIOTECAS PUBLICAS);DISPONIBLE;BIBLIOTECA;ESCALADA AV.;0;DELLEPIANE, LUIS, TTE. GRAL.;ESCALADA AV. Y DELLEPIANE, LUIS, TTE. GRAL.;;
-34.5648527685518;-58.4618197843991;109;JOSE MARMOL;BIBLIOTECA;GESTION PREVIA HRL;5TA. ETAPA / NOVIEMBRE 2012 (BIBLIOTECAS PUBLICAS);DISPONIBLE;BIBLIOTECA;JURAMENTO;2937;;JURAMENTO 2937;BELGRANO;COMUNA 13
-34.6594926116402;-58.4290247865609;108;CENTRO CULTURAL ELADIA BLAZQUEZ;ESPACIO PUBLICO;GESTION PREVIA HRL;;DISPONIBLE;CENTRO DE EXPOSICIONES Y CULTURALES;RABANAL;2275;;RABANAL, FRANCISCO, INTENDENTE AV. 2275;VILLA SOLDATI;COMUNA 8
-34.5505371979479;-58.4910133329428;106;PARQUE DEL PRECINTO 12 (PLAZA HUNGRIA);ESPACIO PUBLICO;GESTION PREVIA HRL;abr-14;DISPONIBLE;PARQUES Y PLAZAS;GOYENECHE;0;RAMALLO;GOYENECHE, ROBERTO PARQUE AV. Y RAMALLO;SAAVEDRA;COMUNA 12
-34.6388929303699;-58.3601267430462;105;HTAL. QUINQUELA MARTIN;HOSPITALES Y CENTROS DE SALUD;GESTION PREVIA HRL;;DISPONIBLE;HOSPITAL;DON PEDRO DE MENDOZA AV.;1795;;DON PEDRO DE MENDOZA AV. 1795;BOCA;COMUNA 4
-34.630212291207;-58.375845218526;102;HTAL. MARIA FERRER;HOSPITALES Y CENTROS DE SALUD;GESTION PREVIA HRL;;DISPONIBLE;HOSPITAL;FINOCHIETTO ENRIQUE DR.;849;;FINOCHIETTO ENRIQUE DR. 849;BARRACAS;COMUNA 4
-34.6071615843299;-58.4331500579085;101;HTAL. MARIA CURIE;HOSPITALES Y CENTROS DE SALUD;GESTION PREVIA HRL;;DISPONIBLE;HOSPITAL;CANGALLO;0;PATRICIAS ARGENTINAS AV.;CANGALLO Y PATRICIAS ARGENTINAS AV.;CABALLITO;COMUNA 6
-34.6099440878641;-58.381255566549;98;ESTACION YRIGOYEN;METROBUS;GESTION PREVIA HRL;;DISPONIBLE;9 DE JULIO;9 DE JULIO AV.;0;YRIGOYEN, HIPOLITO;9 DE JULIO AV. Y YRIGOYEN, HIPOLITO;MONSERRAT;COMUNA 1
-34.6145006069406;-58.381030356945;97;ESTACION VENEZUELA;METROBUS;GESTION PREVIA HRL;;DISPONIBLE;9 DE JULIO;9 DE JULIO AV.;0;REPUBLICA BOLIVARIANA DE VENEZUELA;9 DE JULIO AV. Y  REPUBLICA BOLIVARIANA DE VENEZUELA;MONSERRAT;COMUNA 1
-34.6005804300295;-58.3818123103929;96;ESTACION TEATRO COLON;METROBUS;GESTION PREVIA HRL;;DISPONIBLE;9 DE JULIO;9 DE JULIO AV.;0;VIAMONTE;9 DE JULIO AV. Y VIAMONTE;SAN NICOLAS;COMUNA 1
-34.595845005054;-58.3821303401802;95;ESTACION SANTA FE;METROBUS;GESTION PREVIA HRL;;DISPONIBLE;9 DE JULIO;9 DE JULIO AV.;0;SANTA FE AV.;9 DE JULIO AV. Y SANTA FE AV.;RETIRO;COMUNA 1
-34.6491866976531;-58.5156373291473;94;HTAL. SANTOJANNI;HOSPITALES Y CENTROS DE SALUD;GESTION PREVIA HRL;;DISPONIBLE;HOSPITAL;PILAR;950;;PILAR 950;LINIERS;COMUNA 9
-34.5982531573038;-58.3818950222302;93;ESTACION PARAGUAY;METROBUS;GESTION PREVIA HRL;;DISPONIBLE;9 DE JULIO;9 DE JULIO AV.;0;PARAGUAY;9 DE JULIO AV. Y PARAGUAY;RETIRO;COMUNA 1
-34.6053778858849;-58.3815394202477;92;ESTACION OBELISCO SUR;METROBUS;GESTION PREVIA HRL;;DISPONIBLE;9 DE JULIO;9 DE JULIO AV.;0;SARMIENTO;9 DE JULIO AV. Y SARMIENTO;SAN NICOLAS;COMUNA 1
-34.6017254419825;-58.3817535578343;91;ESTACION OBELISCO NORTE;METROBUS;GESTION PREVIA HRL;;DISPONIBLE;9 DE JULIO;9 DE JULIO AV.;0;TUCUMAN;9 DE JULIO AV. Y TUCUMAN;SAN NICOLAS;COMUNA 1
-34.6075846089842;-58.3813918661666;90;ESTACION MITRE;METROBUS;GESTION PREVIA HRL;;DISPONIBLE;9 DE JULIO;9 DE JULIO AV.;0;MITRE, BARTOLOME;9 DE JULIO AV. Y MITRE, BARTOLOME;SAN NICOLAS;COMUNA 1
-34.6155097729598;-58.3809905284027;89;ESTACION MEXICO;METROBUS;GESTION PREVIA HRL;;DISPONIBLE;9 DE JULIO;9 DE JULIO AV.;0;MEXICO;9 DE JULIO AV. Y MEXICO;MONSERRAT;COMUNA 1
-34.5971201763966;-58.3820015194344;88;ESTACION MARCELO T. DE ALVEAR;METROBUS;GESTION PREVIA HRL;;DISPONIBLE;9 DE JULIO;9 DE JULIO AV.;0;ALVEAR, MARCELO T. DE;9 DE JULIO AV. Y ALVEAR, MARCELO T. DE;RETIRO;COMUNA 1
-34.5743189142064;-58.4863853484926;83;ESTACION JUAN MANUEL DE ROSAS - LINEA B;SUBTE;GESTION PREVIA HRL;;DISPONIBLE;LINEA B;TRIUNVIRATO AV.;0;MONROE;TRIUNVIRATO AV. Y MONROE;VILLA URQUIZA;COMUNA 12
-34.6064568154422;-58.3814587397799;82;ESTACION JUAN D. PERON;METROBUS;GESTION PREVIA HRL;;DISPONIBLE;9 DE JULIO;9 DE JULIO AV.;0;PERON, JUAN DOMINGO, TTE. GENERAL;9 DE JULIO AV. Y PERON, JUAN DOMINGO, TTE. GENERAL;SAN NICOLAS;COMUNA 1
-34.5947640307614;-58.444300153847;81;ESTACION AV. CORRIENTES;METROBUS;SEGUNDA ETAPA HRL;2015;DISPONIBLE;JUAN B. JUSTO;CORRIENTES AV.;0;JUSTO, JUAN B. AV.;CORRIENTES AV. Y JUSTO, JUAN B. AV.;VILLA CRESPO;COMUNA 15
-34.6178904773706;-58.3808827691278;80;ESTACION INDEPENDENCIA;METROBUS;GESTION PREVIA HRL;;DISPONIBLE;9 DE JULIO;9 DE JULIO AV.;0;INDEPENDENCIA AV.;9 DE JULIO AV. E INDEPENDENCIA AV.;MONSERRAT;COMUNA 1
-34.5777973778049;-58.4810135041216;76;ESTACION ESTEBAN ECHEVERRIA - LINEA B;SUBTE;GESTION PREVIA HRL;;DISPONIBLE;LINEA B;TRIUNVIRATO AV.;0;JURAMENTO;TRIUNVIRATO AV. Y JURAMENTO;VILLA URQUIZA;COMUNA 12
-34.6188767140538;-58.3808540572395;75;ESTACION ESTADOS UNIDOS;METROBUS;GESTION PREVIA HRL;;DISPONIBLE;9 DE JULIO;9 DE JULIO AV.;0;ESTADOS UNIDOS;9 DE JULIO AV. Y ESTADOS UNIDOS;CONSTITUCION;COMUNA 1
-34.5994274672618;-58.3818550522952;74;ESTACION CORDOBA;METROBUS;GESTION PREVIA HRL;;DISPONIBLE;9 DE JULIO;9 DE JULIO AV.;0;CORDOBA AV.;9 DE JULIO AV. Y CORDOBA AV.;RETIRO;COMUNA 1
-34.6166794883139;-58.3809449927938;73;ESTACION CHILE;METROBUS;GESTION PREVIA HRL;;DISPONIBLE;9 DE JULIO;9 DE JULIO AV.;0;CHILE;9 DE JULIO AV. Y CHILE;MONSERRAT;COMUNA 1
-34.6134730732241;-58.3810424601935;72;ESTACION BELGRANO;METROBUS;GESTION PREVIA HRL;;DISPONIBLE;9 DE JULIO;9 DE JULIO AV.;0;BELGRANO AV.;9 DE JULIO AV. Y BELGRANO AV.;MONSERRAT;COMUNA 1
-34.611070891371;-58.381171727514;71;ESTACION ALSINA;METROBUS;GESTION PREVIA HRL;;DISPONIBLE;9 DE JULIO;9 DE JULIO AV.;0;ALSINA, ADOLFO;9 DE JULIO AV. Y ALSINA, ADOLFO;MONSERRAT;COMUNA 1
-34.6379349572243;-58.4077330908641;70;ENRIQUE BANCHS;BIBLIOTECA;GESTION PREVIA HRL;5TA. ETAPA / NOVIEMBRE 2012 (BIBLIOTECAS PUBLICAS);DISPONIBLE;BIBLIOTECA;CASEROS AV.;0;URQUIZA, GRAL.;CASEROS AV. Y URQUIZA, GRAL.;PARQUE PATRICIOS;COMUNA 4
-34.676923360823;-58.4746023514832;69;EL PROGRESO;BIBLIOTECA;GESTION PREVIA HRL;5TA. ETAPA / NOVIEMBRE 2012 (BIBLIOTECAS PUBLICAS);DISPONIBLE;BIBLIOTECA;RIESTRA AV.;5655;;RIESTRA AV. 5655;VILLA LUGANO;COMUNA 8
-34.6094311596753;-58.3602658369179;67;DIRECCION GRAL. DE MUSEOS;ESPACIO PUBLICO;GESTION PREVIA HRL;;DISPONIBLE;EDIFICIOS DEL GCABA;DE LOS ITALIANOS AV.;0;MARTA LYNCH;DE LOS ITALIANOS AV. Y LYNCH MARTA;PUERTO MADERO;COMUNA 1
-34.6103442931861;-58.374854938614;64;DIAGONAL SUR Y PERU;PARQUES Y PLAZAS;GESTION PREVIA HRL;1RA. ETAPA / DISPONIBLE;DISPONIBLE;PARQUES Y PLAZAS;ROCA, JULIO A., PRESIDENTE AV.;0;PERU;ROCA, JULIO A., PRESIDENTE AV. Y PERU;MONSERRAT;COMUNA 1
-34.6048900950283;-58.3790286025624;63;DIAGONAL NORTE Y SARMIENTO;AREA CENTRAL;GESTION PREVIA HRL;;DISPONIBLE;DIAGONAL NORTE;SAENZ PEôA, ROQUE, PRES. AV.;0;SARMIENTO;SAENZ PEôA, ROQUE, PRES. AV. Y SARMIENTO;SAN NICOLAS;COMUNA 1
-34.6076443815688;-58.3737067236271;62;DIAGONAL NORTE Y SAN MARTIN;AREA CENTRAL;GESTION PREVIA HRL;;DISPONIBLE;DIAGONAL NORTE;SAENZ PEôA, ROQUE, PRES. AV.;0;SAN MARTIN;SAENZ PEôA, ROQUE, PRES. AV. Y SAN MARTIN;MONSERRAT;COMUNA 1
-34.6057782667736;-58.3772660055996;61;DIAGONAL NORTE Y PERON;AREA CENTRAL;GESTION PREVIA HRL;;DISPONIBLE;DIAGONAL NORTE;SAENZ PEôA, ROQUE, PRES. AV.;0;PERON, JUAN DOMINGO, TTE. GENERAL;SAENZ PEôA, ROQUE, PRES. AV. Y PERON, JUAN DOMINGO, TTE.;;
-34.6062456866607;-58.3763846689;60;DIAGONAL NORTE Y MAIPU;AREA CENTRAL;GESTION PREVIA HRL;;DISPONIBLE;DIAGONAL NORTE;SAENZ PEôA, ROQUE, PRES. AV.;0;MAIPU;SAENZ PEôA, ROQUE, PRES. AV. Y MAIPU;SAN NICOLAS;COMUNA 1
-34.6070196315074;-58.3748931714984;59;DIAGONAL NORTE Y FLORIDA;AREA CENTRAL;GESTION PREVIA HRL;;DISPONIBLE;DIAGONAL NORTE;SAENZ PEôA, ROQUE, PRES. AV.;0;FLORIDA;SAENZ PEôA, ROQUE, PRES. AV. Y FLORIDA;SAN NICOLAS;COMUNA 1
-34.6245876275318;-58.3916273578678;58;DEL DOCENTE;BIBLIOTECA;GESTION PREVIA HRL;5TA. ETAPA / NOVIEMBRE 2012 (BIBLIOTECAS PUBLICAS);DISPONIBLE;BIBLIOTECA;ENTRE RIOS AV.;1349;;ENTRE RIOS AV. 1349;SAN CRISTOBAL;COMUNA 3
-34.604578074168;-58.4053996790446;52;ESTACION PUEYRREDON - LINEA B;SUBTE;GESTION PREVIA HRL;;DISPONIBLE;LINEA B;CORRIENTES AV.;0;PUEYRREDON AV.;CORRIENTES AV. Y PUEYRREDON AV.;BALVANERA;COMUNA 3
-34.6547384614982;-58.3794978082552;51;CENTRO METROPOLITANO DE DISEôO;ESPACIO PUBLICO;GESTION PREVIA HRL;;DISPONIBLE;CENTRO DE EXPOSICIONES Y CULTURALES;ALGARROBO;1041;;ALGARROBO 1041;BARRACAS;COMUNA 4
-34.6081412139402;-58.3778740475355;50;CTRO. DE INF. TURISTICA 'ROBERTO ARLT';ESPACIO PUBLICO;GESTION PREVIA HRL;;DISPONIBLE;OTROS ESTABLECIMIENTOS;RIVADAVIA AV.;0;ESMERALDA;RIVADAVIA AV. Y ESMERALDA;MONSERRAT;COMUNA 1
-34.5511265769768;-58.490829477189;49;COMISARIA COMUNAL 12;ESPACIO PUBLICO;GESTION PREVIA HRL;;DISPONIBLE;OTROS ESTABLECIMIENTOS;RAMALLO;4389;;RAMALLO 4389;SAAVEDRA;COMUNA 12
-34.665894627401;-58.4610775798888;48;CIFA;PARQUES Y PLAZAS;GESTION PREVIA HRL;3RA. ETAPA / AGOSTO 2012;DISPONIBLE;PARQUES Y PLAZAS;ESCALADA AV.;0;CASTAôARES AV.;ESCALADA AV. Y CASTAôARES AV.;VILLA SOLDATI;COMUNA 8
-34.6290872274132;-58.4635405106623;33;ESTACION SAN JOSE DE FLORES - LINEA A;SUBTE;GESTION PREVIA HRL;;DISPONIBLE;LINEA A;RIVADAVIA AV.;0;PEDERNERA;RIVADAVIA AV. Y PEDERNERA;FLORES;COMUNA 7
-34.6335531292623;-58.3866636169241;31;CENTRO CULTURAL SUR;ESPACIO PUBLICO;GESTION PREVIA HRL;;DISPONIBLE;CENTRO DE EXPOSICIONES Y CULTURALES;CASEROS AV.;1750;;CASEROS AV. 1750;BARRACAS;COMUNA 4
-34.5865924992157;-58.3918049157745;21;CENTRO CULTURAL RECOLETA;ESPACIO PUBLICO;GESTION PREVIA HRL;;DISPONIBLE;CENTRO DE EXPOSICIONES Y CULTURALES;JUNIN;1930;;JUNIN 1930;RECOLETA;COMUNA 2
-34.6247055639513;-58.4113854142757;20;CENTRO CULTURAL JULIAN CENTEYA;ESPACIO PUBLICO;GESTION PREVIA HRL;;DISPONIBLE;CENTRO DE EXPOSICIONES Y CULTURALES;SAN JUAN AV.;3255;;SAN JUAN AV. 3255;SAN CRISTOBAL;COMUNA 3
-34.6059549906077;-58.4137620223228;17;CONSERVATORIO SUPERIOR DE MUSICA MANUEL DE FALLA;ESPACIO PUBLICO;GESTION PREVIA HRL;;DISPONIBLE;OTROS ESTABLECIMIENTOS;SARMIENTO;3401;;SARMIENTO 3401;ALMAGRO;COMUNA 5
-34.5812818946845;-58.4237989317588;16;CARLOS GUIDO Y SPANO;BIBLIOTECA;GESTION PREVIA HRL;5TA. ETAPA / NOVIEMBRE 2012 (BIBLIOTECAS PUBLICAS);DISPONIBLE;BIBLIOTECA;GUEMES;4601;;GUEMES 4601;PALERMO;COMUNA 14
-34.63934310901;-58.3627060646101;15;CAMINITO;ESPACIO PUBLICO;GESTION PREVIA HRL;2DA. ETAPA / JULIO 2012;DISPONIBLE;OTROS ESTABLECIMIENTOS;MAGALLANES;0;GARIBALDI;MAGALLANES Y GARIBALDI;BOCA;COMUNA 4
-34.6062337965054;-58.4031550568903;9;EMAD - ESCUELA METROPOLITANA DE ARTE DRAMATICO;ESPACIO PUBLICO;GESTION PREVIA HRL;;DISPONIBLE;OTROS ESTABLECIMIENTOS;SARMIENTO;2573;;SARMIENTO 2573;BALVANERA;COMUNA 3
-34.6083884251727;-58.3747834538112;8;AV. DE MAYO Y PERU;ESPACIO PUBLICO;GESTION PREVIA HRL;1RA. ETAPA / DISPONIBLE;DISPONIBLE;AV. DE MAYO;DE MAYO AV.;591;;DE MAYO AV. 591;MONSERRAT;COMUNA 1
-34.5992834288627;-58.5107247353059;7;ANTONIO DEVOTO;BIBLIOTECA;GESTION PREVIA HRL;5TA. ETAPA / NOVIEMBRE 2012 (BIBLIOTECAS PUBLICAS);DISPONIBLE;BIBLIOTECA;BAHIA BLANCA;4025;;BAHIA BLANCA 4025;VILLA DEVOTO;COMUNA 11
-34.6060097185183;-58.4366871485887;6;ANFITEATRO PARQUE CENTENARIO;ESPACIO PUBLICO;GESTION PREVIA HRL;;DISPONIBLE;TEATRO;GALLARDO, ANGEL AV.;0;MARECHAL, LEOPOLDO;GALLARDO, ANGEL AV. Y MARECHAL, LEOPOLDO;VILLA CRESPO;COMUNA 15
-34.6849788440007;-58.4633488397356;5;ALVARO YUNQUE;BIBLIOTECA;GESTION PREVIA HRL;5TA. ETAPA / NOVIEMBRE 2012 (BIBLIOTECAS PUBLICAS);DISPONIBLE;BIBLIOTECA;SOLDADO DE LA FRONTERA AV.;5210;;SOLDADO DE LA FRONTERA AV. 5210;VILLA LUGANO;COMUNA 8
-34.6161348963839;-58.3662602147304;4;ALICIA MOREAU DE JUSTO Y CHILE;ESPACIO PUBLICO;GESTION PREVIA HRL;1RA. ETAPA / DISPONIBLE;DISPONIBLE;ALICIA MOREAU DE JUST;MOREAU DE JUSTO, ALICIA AV.;0;EYLE, PETRONA;MOREAU DE JUSTO, ALICIA AV. Y EYLE, PETRONA;;
-34.6298260831398;-58.3602750053352;1;DEPOSITO MUSEO DEL CINE;ESPACIO PUBLICO;GESTION PREVIA HRL;GESTION PREVIA HRL;DISPONIBLE;OTROS ESTABLECIMIENTOS;MINISTRO BRIN;615;;BRIN, MINISTRO 615;BOCA;COMUNA 4
